,name,id,lat,lng,userscount,visitscount,checkinscount,tipcount,zipcode
0,Szechuan Garden Kitchen,4e2f663de4cdb5a70d689bd8,40.802016524033924,-73.95723531366912,35,84,84,2,10026
1,Red Hot,59ac42570868a23a1e0fde8f,40.801466,-73.961428,6,6,6,0,10025
2,Hunan Chen's Kitchen,517732ade4b01baf4729f059,40.801382601684686,-73.96141392572608,40,105,95,2,10025
3,Peking Kitchen,4d1522618312236a9f0950ba,40.80482333472266,-73.9551611375202,107,407,401,6,10026
4,No. 1 Chinese Restaurant,4f14ba2ae4b03856f3a57a74,40.80108379979388,-73.9498019821836,34,58,34,0,10026
5,Jimmy's Chinese,4c4f160adb2c20a150187975,40.799486,-73.946153,16,70,70,2,10029
6,Empire III Chinese & Pan Asian Cusine,4d910d15f5388cfa1949ac3d,40.80283622663893,-73.9527298245549,52,113,112,0,10026
7,Empire Corner II,4b983573f964a520523435e3,40.80054460190812,-73.94735381726888,45,600,600,3,10029
8,Good Taste,4ada69bbf964a520622221e3,40.80716993999382,-73.94590014862239,51,169,165,3,10027
9,New King Wok,4d4dfddfd6f3224b46c1a2a6,40.80648006492499,-73.95012342943747,54,141,131,2,10027
10,Red Star Chinese Food,4f525e36e4b0b5d9ddd272fd,40.80065018564576,-73.94854488859387,7,7,7,0,10029
11,New Dragon,513fddbce4b028cabb15cfc7,40.804547,-73.955675,1,1,1,0,10026
12,Feng Shun Chang Kitchen,4e4004448877b00cfc67de74,40.799058561769215,-73.95151827484472,13,18,18,0,10026
13,Hong Cheong,5086ca47e4b0bdc4ffafbf1a,40.80215835571289,-73.9602279663086,1,1,1,0,10027
14,Junzi Kitchen,57f5241d498e3b45c81d6194,40.80593913348885,-73.9654220954998,259,441,235,12,10025
15,Crispy Bamboo Village,4bf348fce5eba593c8711e90,40.81627823973171,-73.94693839905996,321,690,596,1,10030
16,Great China Chinese Restaurant,4e4cd07fbd413c4cc66c5fb8,40.8170577983931,-73.95370661988251,56,153,107,3,10027
17,88 Chinese Restaurant,4bd1f6909854d13a38a2fa4d,40.81318684305849,-73.94146699347901,105,200,175,4,10037
18,New Home Sing,4f177ab5e4b01130e70c27cf,40.82049106946035,-73.95453012560915,67,264,193,0,10031
19,West Place,4b8c0c64f964a520b9ba32e3,40.81139626019461,-73.95760163201733,262,728,629,10,10027
20,Healthy Corner Chinese Food Cart,5772bb62498e562ece7193c8,40.80814889720485,-73.96287182676899,5,7,7,0,10027
21,Sum Hing,4c13ff18a9c220a113d3569d,40.8190221196401,-73.95205210189614,40,123,122,0,10031
22,The Best Chinese Restaurant,4c897e9c52a98cfab99724e9,40.81325991201645,-73.9574878697138,22,28,23,0,10027
23,The Tuo Fast Food,59d6adb558002c2cb1917f02,40.808412,-73.963144,1,1,1,0,10027
24,Good Taste,5105c175e4b09faec50ac3b0,40.82121613945048,-73.95449878767525,43,230,129,0,10031
25,Ocean Restaurant,4c82f8eb309aef3b9d06c681,40.81068459904277,-73.94333715777309,69,143,141,3,10027
26,Peking Kitchen,4d1522618312236a9f0950ba,40.80482333472266,-73.9551611375202,107,407,401,6,10026
27,Fu On Kitchen,4d4c38fb64faba7a9975f28a,40.81931562023554,-73.94082675442002,31,134,130,1,10030
28,Grand Great Wall,4b8c48fbf964a5208bc832e3,40.82122061569377,-73.9505802190639,246,734,560,4,10031
29,Great Wall Chinese Restaurant,59210bbe12f0a95d08ae835b,40.81445,-73.940704,1,3,3,0,10037
30,Zhong Nan Garden,4b12e7c8f964a5208f9023e3,40.8124441,-73.94219701666667,3,3,3,0,10037
31,Good Choice,4fcd2f06e4b0fc13c4810fb4,40.807568339530974,-73.94972162028085,8,9,9,0,10027
32,Tang S.,4ae5e6b8f964a520ffa221e3,40.81110145249487,-73.95237354543085,50,99,98,1,10027
33,China Place,4b21974df964a520833e24e3,40.81403821530296,-73.95954897357637,151,284,278,6,10027
34,"Great Wall Kitchen, New York",4f3214f019836c91c7b3ee6b,40.813261,-73.945195,9,12,11,1,10027
35,New Fuon Kitchen,4e4e4d33bd4101d0d7a734c9,40.81940551096171,-73.94116288651622,3,3,3,0,10030
36,Broadway 137th Street Chinese Restaurant,4ed95d47b8f7fcd03f05d701,40.821176756059025,-73.95408981525348,32,50,50,0,10031
37,Good Taste,4ada69bbf964a520622221e3,40.80716993999382,-73.94590014862239,51,169,165,3,10027
38,Red Star,4ba012bdf964a520aa5737e3,40.80768187139549,-73.94928499901698,188,339,194,7,10027
39,Hong Cheng Fast Food,4d40ca8cbd53f04d70b74715,40.81221266262718,-73.95027267265735,6,10,10,0,10027
40,Good Friend Chinese Restaurant,4db7699c4df0ded98ba84515,40.816152863765325,-73.95801020048518,12,22,22,0,10027
41,New King Wok,4d4dfddfd6f3224b46c1a2a6,40.80648006492499,-73.95012342943747,54,141,131,2,10027
42,Peking Garden Restaurant,4f762f77e4b0d69367fcfe82,40.81484045247877,-73.95885916848144,52,124,123,4,10027
43,Hong Cheong,52006707498eae69adb7f044,40.8120037245266,-73.9494862745164,11,16,8,0,10027
44,Panda Garden Kitchen,4b1468b9f964a520b8a223e3,40.81451175563877,-73.95956570462958,32,67,67,0,10027
45,New Dragon,513fddbce4b028cabb15cfc7,40.804547,-73.955675,1,1,1,0,10026
46,Pood Lounge,4e62efd62271573ad7d9ba4f,40.81272,-73.961499,6,12,12,1,
47,Chung Lan Garden,4e4e4d2fbd4101d0d7a73480,40.812501352566,-73.94117436729795,2,6,6,0,10037
48,China Wok,4c5865616201e21e16396d70,40.8125780894389,-73.94182058111082,67,225,206,2,10037
49,China Kitchen,4e4cd066bd413c4cc66c5ee2,40.80875380102652,-73.95038747503808,2,2,2,0,10027
50,New Aroma Chinese,4b9dab51f964a5203bb936e3,40.813038098964014,-73.95632545316798,60,188,173,4,10027
51,Crispy Bamboo Village,4bf348fce5eba593c8711e90,40.81627823973171,-73.94693839905996,321,690,596,1,10030
52,88 Chinese Restaurant,4bd1f6909854d13a38a2fa4d,40.81318684305849,-73.94146699347901,105,200,175,4,10037
53,City One Chinese Restaurant,4dd5c9448877f1150fc23d52,40.82268804370475,-73.94210414664701,102,333,308,2,10030
54,Fu On Kitchen,4d4c38fb64faba7a9975f28a,40.81931562023554,-73.94082675442002,31,134,130,1,10030
55,Great Wall Chinese Restaurant,59210bbe12f0a95d08ae835b,40.81445,-73.940704,1,3,3,0,10037
56,King's Chef Chinese Restaurant,4e4e4d31bd4101d0d7a734a7,40.81849707740691,-73.93946372331968,18,78,78,0,10037
57,"Great Wall Kitchen, New York",4f3214f019836c91c7b3ee6b,40.813261,-73.945195,9,12,11,1,10027
58,New Fuon Kitchen,4e4e4d33bd4101d0d7a734c9,40.81940551096171,-73.94116288651622,3,3,3,0,10030
59,Ho Lee Restaurant,4b4e065ef964a520a5de26e3,40.82118687981364,-73.93943502111064,35,78,75,1,10030
60,Hong Kong Foid,50cc015fe4b0956d2ddc7539,40.814911424177126,-73.93981963035857,5,6,6,0,10037
61,King Garden,4ba1751df964a520b7b837e3,40.81379222854726,-73.93790231697047,33,229,229,1,10037
62,Red Star Restaurant,4dffd71dd22d5ec6f27691c1,40.822619975670015,-73.93870024311093,33,80,74,2,10039
63,Hong Garden,4e4e4d34bd4101d0d7a734ea,40.82234614341669,-73.93913077743322,40,98,85,2,10039
64,Hong Kong Chinese Restaurant,4c45c8e82d3ec9b6b4b730ae,40.815013544778004,-73.93984792243161,36,110,110,0,10037
65,88 Chinese Restaurant,4bd1f6909854d13a38a2fa4d,40.81318684305849,-73.94146699347901,105,200,175,4,10037
66,Perfect Taste,516b0589e4b075b2dc729f0a,40.8073451339418,-73.93820656257712,19,83,71,0,10036
67,Ocean Restaurant,4c82f8eb309aef3b9d06c681,40.81068459904277,-73.94333715777309,69,143,141,3,10027
68,Fu On Kitchen,4d4c38fb64faba7a9975f28a,40.81931562023554,-73.94082675442002,31,134,130,1,10030
69,Great Wall Chinese Restaurant,59210bbe12f0a95d08ae835b,40.81445,-73.940704,1,3,3,0,10037
70,Zhong Nan Garden,4b12e7c8f964a5208f9023e3,40.8124441,-73.94219701666667,3,3,3,0,10037
71,King's Chef Chinese Restaurant,4e4e4d31bd4101d0d7a734a7,40.81849707740691,-73.93946372331968,18,78,78,0,10037
72,New Fuon Kitchen,4e4e4d33bd4101d0d7a734c9,40.81940551096171,-73.94116288651622,3,3,3,0,10030
73,Hong Kong Foid,50cc015fe4b0956d2ddc7539,40.814911424177126,-73.93981963035857,5,6,6,0,10037
74,King Garden,4ba1751df964a520b7b837e3,40.81379222854726,-73.93790231697047,33,229,229,1,10037
75,Chung Lan Garden,4e4e4d2fbd4101d0d7a73480,40.812501352566,-73.94117436729795,2,6,6,0,10037
76,China Wok,4c5865616201e21e16396d70,40.8125780894389,-73.94182058111082,67,225,206,2,10037
77,Hong Kong Chinese Restaurant,4c45c8e82d3ec9b6b4b730ae,40.815013544778004,-73.93984792243161,36,110,110,0,10037
78,Jing Xin Chinese Restaurant,500742d3e4b06d3d9445b80f,40.833585175007585,-73.92913639414733,159,456,66,0,10452
79,Empire Noodle House,4a726f62f964a52011db1fe3,40.84260363150912,-73.93960421909834,685,1464,980,11,10032
80,Jade House,55b3da56498e35bfde50da0e,40.838601090683824,-73.93737419138682,44,91,11,0,10032
81,City One Chinese Restaurant,4dd5c9448877f1150fc23d52,40.82268804370475,-73.94210414664701,102,333,308,2,10030
82,Jade Garden Chinese Restaurant,5270399211d218703bf55f83,40.84192289321093,-73.93925666872532,103,300,246,3,10032
83,New Golden Empire,4b1f0394f964a520e22224e3,40.82606357103899,-73.94327792963422,136,482,421,10,10031
84,First Choice Chinese Restaurant,4be727362468c928ca290243,40.837714063687,-73.94224186826041,80,171,146,2,10032
85,Silver Palace Chinese Restaurant,4e4cd2babd413c4cc66c7241,40.83600551281902,-73.94334179910396,251,543,210,2,10032
86,Fu On Kitchen,4d4c38fb64faba7a9975f28a,40.81931562023554,-73.94082675442002,31,134,130,1,10030
87,Jing Hui,4b80962bf964a520f97e30e3,40.82476274101123,-73.94045340615348,122,287,204,9,10039
88,new lucky star kitchen,52a010ba11d285144d71428f,40.840794510899705,-73.93629497376187,3,3,3,0,
89,Splendid China Restaurant,4dcc827952b1648798ff17f5,40.83628406737483,-73.94007220915071,17,71,71,0,10032
90,Number 1 Chinese Food,515b3a43e4b0103638560c5b,40.836226,-73.943182,10,17,17,0,
91,King's Chef Chinese Restaurant,4e4e4d31bd4101d0d7a734a7,40.81849707740691,-73.93946372331968,18,78,78,0,10037
92,New Fuon Kitchen,4e4e4d33bd4101d0d7a734c9,40.81940551096171,-73.94116288651622,3,3,3,0,10030
93,China Sun,4c80650ed4e237043daf5488,40.84443167,-73.9371269,26,86,82,1,10033
94,New Luck Garden,4b908f2cf964a520fd8f33e3,40.83275177152507,-73.94209588912703,247,495,124,2,10032
95,Ho Lee Restaurant,4b4e065ef964a520a5de26e3,40.82118687981364,-73.93943502111064,35,78,75,1,10030
96,Number 1 Restaurant,4df2b248e4cda09e6da0bb9d,40.836345177964446,-73.94291943820092,17,47,47,2,10032
97,King House,4ccc94697c2ff04df3429a7e,40.836651742758555,-73.94014109421869,37,107,100,1,10032
98,Yong Sheng Restaurant,4e4e4d37bd4101d0d7a7354a,40.826361926456094,-73.93893560199236,14,23,19,1,10039
99,Red Star Restaurant,4dffd71dd22d5ec6f27691c1,40.822619975670015,-73.93870024311093,33,80,74,2,10039
100,New Wok Hop Co.,51f6a36c498e6f23dd09ae2e,40.82890940198825,-73.93747752041864,3,6,6,0,10039
101,Yang Fan Restaurant,4cacb65944a8224b66ee3540,40.831183649844334,-73.9414499058546,19,58,58,0,10032
102,Jing Bin Seafood,51a0ef8a498efbc52aabc2a0,40.843483,-73.939291,0,0,0,0,10002
103,Hong Garden,4e4e4d34bd4101d0d7a734ea,40.82234614341669,-73.93913077743322,40,98,85,2,10039
104,Hua Yung Kitchen,4da4d9d9cda109f02fb1b51f,40.84583779428026,-73.93841896017027,32,60,60,0,10033
105,Chinese Fried Chicken,4e1bbf0b6284102ec197217c,40.831564382850914,-73.93012380014538,14,31,26,3,10452
106,Lucky Star Chinese Restaurant,4d8f6562c1b1721ea14b4546,40.84057,-73.93646,25,93,83,1,10032
107,Excellent Dumpling House,5898c42832b07235680f373c,40.7440310817379,-73.99516009292122,1033,1360,675,11,10011
108,Calle Dão,53f29ab9498e248b534f7759,40.75239396102473,-73.98413520228499,3580,4869,2225,42,10018
109,Hakkasan,4ea832fe8b8154b19ffa31ad,40.75822103861813,-73.99015090774017,8220,11443,8365,148,10036
110,Dong Chun Hong,4ee279ecc2eee7f3576fd40e,40.74702108811758,-73.9855752913469,2969,6027,4972,35,10001
111,Chop Shop,4fcea172e4b071a2c8809ed2,40.74880956654446,-74.00341006658152,3567,5500,3455,38,10001
112,China Xiang,56f85fba498ed90422c0e8f5,40.75823445243313,-73.99244142800832,380,547,359,4,10036
113,Ollie's Sichuan Restaurant,4aa707ccf964a520d84b20e3,40.75869555247971,-73.99322083968677,4298,6336,4344,53,10036
114,Lan Sheng Szechuan Restaurant 草堂小餐,57dddade498eaf06318e5a86,40.75168933480759,-73.98815637133109,486,706,286,4,10018
115,Main Noodle House,4a3fcc65f964a520f2a31fe3,40.75204369049894,-73.98613800616226,2433,4839,3956,48,10018
116,Grand Sichuan International,49c81307f964a520f1571fe3,40.74725197392034,-74.00094538087599,4805,8117,5954,107,10001
117,Savour Sichuan,54db9021498ee7bd148d3d06,40.75315799135671,-73.9860598167793,495,736,487,9,10018
118,Ginger's,4ae7264af964a520e2a821e3,40.75317836771786,-73.9890789165319,3115,6112,5496,77,10018
119,Panda Express,5800f6fe38faa8d30d961a70,40.7502659973641,-73.99475638254314,211,338,288,1,10001
120,New Epicurean Chinese Restaurant,4f32819e19836c91c7de7360,40.745172,-73.984819,12,36,36,0,10002
121,Hyo Dong Gak,49ebe710f964a52044671fe3,40.75013168829856,-73.98632563528624,2395,4430,4174,35,10001
122,Golden City,4b0980eff964a520611823e3,40.75337989525288,-73.99645332512665,393,1339,1194,12,10001
123,Zest Szechuan,56e067e2498ee4f64c6605b3,40.752657675388065,-73.98468550354744,291,422,376,7,10018
124,Ming's Chinese Food Express,4f325e2019836c91c7d0deb5,40.754301,-73.988741,9,33,33,0,10018
125,Bao By Kaya @ Broadway Bites,593885b3a6ec98688a5a6252,40.748635,-73.988302,71,81,78,2,10001
126,La Vie En Szechuan,4fe4d63de4b00ca0cf81f604,40.747478998882734,-73.98440087625113,1511,2629,2451,43,10016
127,Jian Bing Man,56e4af39498e3f5a80a875d9,40.74761866341857,-73.98629486560822,137,168,168,6,10001
128,Bao by Kaya,566b1c17498e5da2a93bcd81,40.74913061186404,-73.98812505394727,62,69,69,1,10010
129,Ming's Restaurant,4bb0e0e0f964a520e4653ce3,40.75289959873118,-73.9967027435105,215,628,564,4,10001
130,Chinese Culinary Competition,4ca4b82bf832a1cdc266a8e5,40.75884,-73.985102,6,10,10,0,10001
131,New Li Yuan Restaurant & Bakery,4a7b0519f964a520d1e91fe3,40.75448836700365,-73.9910519179946,270,890,818,16,10018
132,New Dynasty,4ee1353b8b816da57bbb0cb6,40.749409513249454,-73.99548280136918,139,479,449,4,10001
133,28 Fusion Sushi/Chef 28,4ac4cfd1f964a520119f20e3,40.74369840605878,-73.98514777637979,817,1768,1663,20,10016
134,Chinese Fast Wok,4aa6ec6af964a5207a4b20e3,40.744370788894514,-73.99550313639813,343,783,692,14,10011
135,Mr Bing,592ef7cb2bf9a9463ec14d05,40.74895572304195,-73.98835461352502,30,30,30,0,10011
136,Taste Kitchen,59e392e4916bc141768f54f0,40.753601,-73.993487,1,1,1,0,10018
137,Hot Sichuan,53e10e19498ee2ab1ebd326e,40.743635864972326,-74.003451991979,154,254,243,6,10011
138,Buddakan,44e9b421f964a520a5371fe3,40.74224088989257,-74.0046067331331,24720,32113,27705,472,10011
139,Hao Noodle and Tea by Madam Zhu's Kitchen,57253c92498e3c0f9a690b7c,40.7334030786336,-73.99980215251975,3492,4744,1672,49,10014
140,Excellent Dumpling House,5898c42832b07235680f373c,40.7440310817379,-73.99516009292122,1033,1360,675,11,10011
141,Shorty Tang Noodles,582a4088da08cb6d478ce53a,40.74026915851698,-74.0021262953133,730,884,443,14,10011
142,Very Fresh Noodles,56b4157d498e3b7e896370d8,40.74226558025584,-74.0063798133011,1157,1546,1287,27,10011
143,Chop Shop,4fcea172e4b071a2c8809ed2,40.74880956654446,-74.00341006658152,3567,5500,3455,38,10001
144,Sammy's Noodle Shop,3fd66200f964a520f2e91ee3,40.73517747101567,-73.99849891662598,5841,9639,6312,112,10011
145,RedFarm,4e1df590b61c7cb34d9735a8,40.73416895229589,-74.00625367536026,9021,13007,11025,260,10014
146,Jue Lan Club,562a58d2498e979da966b1b5,40.74087684146646,-73.99358462925947,1375,1777,1125,16,10011
147,Legend Bar & Restaurant 蜀留香,4cf70d59dc40a35d63a04b54,40.7395893079078,-73.99903119143728,5781,9583,5868,96,10011
148,Grand Sichuan International,49c81307f964a520f1571fe3,40.74725197392034,-74.00094538087599,4805,8117,5954,107,10001
149,Decoy,526eeb54498e9674b5d9034a,40.734181587313365,-74.00646239519119,2379,3110,2564,82,10014
150,Auntie Guan's Kitchen,56e310cf498e64591a7da177,40.73763278617108,-73.99740657080172,659,926,594,9,10011
151,Niu Noodle House,4ff0e85ee4b036efb47b6147,40.73443302379938,-73.99989990069467,3063,4038,3034,58,10014
152,Shu Han Ju Chinese Restaurant,540b96a9498e77fa82499dad,40.73539885615483,-73.99829670654898,313,505,397,9,10011
153,Panda Express,5800f6fe38faa8d30d961a70,40.7502659973641,-73.99475638254314,211,338,288,1,10001
154,Golden City,4b0980eff964a520611823e3,40.75337989525288,-73.99645332512665,393,1339,1194,12,10001
155,Lotus Blue,59b80f8125fb7b648e26cdda,40.735997,-73.991922,19,19,19,1,10003
156,Grand Sichuan Eastern,4dfa9cfc483b085eeda1dcab,40.74258761218343,-74.00043504625874,925,1761,1653,29,10011
157,Ming's Restaurant,4bb0e0e0f964a520e4653ce3,40.75289959873118,-73.9967027435105,215,628,564,4,10001
158,New Li Yuan Restaurant & Bakery,4a7b0519f964a520d1e91fe3,40.75448836700365,-73.9910519179946,270,890,818,16,10018
159,New Dynasty,4ee1353b8b816da57bbb0cb6,40.749409513249454,-73.99548280136918,139,479,449,4,10001
160,Chinese Fast Wok,4aa6ec6af964a5207a4b20e3,40.744370788894514,-73.99550313639813,343,783,692,14,10011
161,Village Express Asian Cuisine,59dd3f41db2aeb3d9584f269,40.732298,-74.003341,2,2,2,0,10014
162,Taste Kitchen,59e392e4916bc141768f54f0,40.753601,-73.993487,1,1,1,0,10018
163,Hot Sichuan,53e10e19498ee2ab1ebd326e,40.743635864972326,-74.003451991979,154,254,243,6,10011
164,Café China,4e3484038877beb5e9a22a0b,40.7499796904135,-73.98223427700086,10367,17182,9342,240,10016
165,Szechuan Gourmet,47af5d00f964a5209e4d1fe3,40.752197360026386,-73.98368302207766,7508,12049,8581,175,10018
166,Calle Dão,53f29ab9498e248b534f7759,40.75239396102473,-73.98413520228499,3580,4869,2225,42,10018
167,Hakkasan,4ea832fe8b8154b19ffa31ad,40.75822103861813,-73.99015090774017,8220,11443,8365,148,10036
168,Kung Fu Little Steamed Buns Ramen,52b782a6498ee2a8438f4150,40.76159729016552,-73.98656783215048,6088,9037,4950,142,10019
169,Panda Express,57bdfbb4498e68c4b71697da,40.761017128295435,-73.99083090318739,562,981,646,7,10036
170,Chaan Teng,58267d7eb4f96246b74368b5,40.76218296501885,-73.98984588380407,711,865,379,3,10036
171,China Xiang,56f85fba498ed90422c0e8f5,40.75823445243313,-73.99244142800832,380,547,359,4,10036
172,Ollie's Sichuan Restaurant,4aa707ccf964a520d84b20e3,40.75869555247971,-73.99322083968677,4298,6336,4344,53,10036
173,Lan Sheng Szechuan Restaurant 草堂小餐,57dddade498eaf06318e5a86,40.75168933480759,-73.98815637133109,486,706,286,4,10018
174,Main Noodle House,4a3fcc65f964a520f2a31fe3,40.75204369049894,-73.98613800616226,2433,4839,3956,48,10018
175,Savour Sichuan,54db9021498ee7bd148d3d06,40.75315799135671,-73.9860598167793,495,736,487,9,10018
176,Ginger's,4ae7264af964a520e2a821e3,40.75317836771786,-73.9890789165319,3115,6112,5496,77,10018
177,Tasty Hand-Pulled Noodles II,55da5c5d498ea579b2923db6,40.76063191503683,-73.99101904180245,569,955,730,7,10036
178,Panda Express,5800f6fe38faa8d30d961a70,40.7502659973641,-73.99475638254314,211,338,288,1,10001
179,Manting Chinese Famous Foods,556f5220498e875eca7b9c7a,40.76019318484058,-73.98314074118191,446,890,703,3,10019
180,Hyo Dong Gak,49ebe710f964a52044671fe3,40.75013168829856,-73.98632563528624,2395,4430,4174,35,10001
181,Golden City,4b0980eff964a520611823e3,40.75337989525288,-73.99645332512665,393,1339,1194,12,10001
182,Zest Szechuan,56e067e2498ee4f64c6605b3,40.752657675388065,-73.98468550354744,291,422,376,7,10018
183,Ming's Chinese Food Express,4f325e2019836c91c7d0deb5,40.754301,-73.988741,9,33,33,0,10018
184,Kung Fu Kitchen,58f24fb30868a239e6757850,40.7614,-73.98698,48,54,53,0,10019
185,Bao by Kaya,566b1c17498e5da2a93bcd81,40.74913061186404,-73.98812505394727,62,69,69,1,10010
186,Ming's Restaurant,4bb0e0e0f964a520e4653ce3,40.75289959873118,-73.9967027435105,215,628,564,4,10001
187,Chinese Culinary Competition,4ca4b82bf832a1cdc266a8e5,40.75884,-73.985102,6,10,10,0,10001
188,New Li Yuan Restaurant & Bakery,4a7b0519f964a520d1e91fe3,40.75448836700365,-73.9910519179946,270,890,818,16,10018
189,New Dynasty,4ee1353b8b816da57bbb0cb6,40.749409513249454,-73.99548280136918,139,479,449,4,10001
190,AA Jing,4a957d36f964a520652320e3,40.76191189992124,-73.99009104537538,1324,2245,2189,35,10036
191,Taste Kitchen,59e392e4916bc141768f54f0,40.753601,-73.993487,1,1,1,0,10018
192,Xi'an Famous Foods,57d1efb5498e018d15de8ba3,40.76194320113338,-73.97745613307671,2003,3219,1572,15,10019
193,Joe's Shanghai 鹿鸣春,3fd66200f964a520bfe71ee3,40.762981662880975,-73.9758833920851,13930,20436,14630,211,10019
194,Kung Fu Little Steamed Buns Ramen,52b782a6498ee2a8438f4150,40.76159729016552,-73.98656783215048,6088,9037,4950,142,10019
195,Panda Express,57bdfbb4498e68c4b71697da,40.761017128295435,-73.99083090318739,562,981,646,7,10036
196,Chaan Teng,58267d7eb4f96246b74368b5,40.76218296501885,-73.98984588380407,711,865,379,3,10036
197,Dim Sum Palace,5953ea99f4b52556d6b64cc7,40.76252409672259,-73.97700765162283,171,197,126,4,10019
198,Ollie's Sichuan Restaurant,4aa707ccf964a520d84b20e3,40.75869555247971,-73.99322083968677,4298,6336,4344,53,10036
199,Shun Lee,4aa834b7f964a5200e5020e3,40.77270074253027,-73.98154231629059,3404,5055,4619,60,10023
200,Tasty Hand-Pulled Noodles II,55da5c5d498ea579b2923db6,40.76063191503683,-73.99101904180245,569,955,730,7,10036
201,Manting Chinese Famous Foods,556f5220498e875eca7b9c7a,40.76019318484058,-73.98314074118191,446,890,703,3,10019
202,Szechuan Gourmet,4b4939abf964a520a26a26e3,40.76580744844261,-73.98292171007884,1572,2495,2072,39,10019
203,Hunan House Manhattan,53909c80498ea85cdddabcca,40.763152361299426,-73.9765159651012,453,750,628,4,10019
204,La Salle Dumpling Room,5960214035d3fc3e620ea646,40.772954,-73.989335,52,90,58,0,10023
205,China Gourmet,4ad34ef5f964a520b9e320e3,40.7638459000745,-73.98505443709347,692,1943,1724,11,10019
206,Tang Pavilion,4b315e9bf964a520980525e3,40.76282779339493,-73.97729519288663,1295,1690,1432,16,10019
207,Lili's 57,4a304695f964a52044991fe3,40.76534781354432,-73.98013219574734,1485,2810,2557,33,10019
208,Kung Fu Kitchen,58f24fb30868a239e6757850,40.7614,-73.98698,48,54,53,0,10019
209,Mee Noodle Shop,4a652f71f964a5206cc71fe3,40.76535010393585,-73.9876721216885,1887,3351,3259,65,10019
210,Yumpling,59c151044b78c507e05447c9,40.764990865324066,-73.98223675697439,9,11,11,0,10019
211,Nanjing,5909fb755f68b97039deda86,40.762626,-73.984948,30,32,30,0,10019
212,Chinese Culinary Competition,4ca4b82bf832a1cdc266a8e5,40.75884,-73.985102,6,10,10,0,10001
213,Ocean Dragon Chinese,4b5f371cf964a520d3ad29e3,40.769351176581246,-73.98841359073752,247,793,762,4,10019
214,Chi at The Plaza,54da3b2f498ecfe2929e9dbc,40.76439503612512,-73.97447724411876,62,92,90,0,10019
215,AA Jing,4a957d36f964a520652320e3,40.76191189992124,-73.99009104537538,1324,2245,2189,35,10036
216,Hing Won,4a537bb9f964a52054b21fe3,40.7583235037965,-73.9800829749137,1273,4052,3430,40,10036
217,Manting Chinese Famous Foods,556f5220498e875eca7b9c7a,40.76019318484058,-73.98314074118191,446,890,703,3,10019
218,Wu Liang Ye,3fd66200f964a520b4ea1ee3,40.758176633373814,-73.97968519480331,1955,2705,2597,41,10036
219,Yumpling,59c151044b78c507e05447c9,40.764990865324066,-73.98223675697439,9,11,11,0,10019
220,Manchu Wok,4ad7619df964a520ef0921e3,40.759426075016286,-73.97933898625391,169,308,306,6,10112
221,China Wok,4d9a5532d97ba1434cf5366b,40.758913482575764,-73.98030264734459,2,2,2,0,11416
222,mang chu wok,4c0e7d7e343ec9b69f7f6b75,40.759369,-73.979071,3,4,4,0,10020
223,Xi'an Famous Foods,517021ffe4b0ad9829ae7815,40.755964519301465,-73.98074456728409,12687,24202,13447,238,10036
224,Szechuan Gourmet,47af5d00f964a5209e4d1fe3,40.752197360026386,-73.98368302207766,7508,12049,8581,175,10018
225,Calle Dão,53f29ab9498e248b534f7759,40.75239396102473,-73.98413520228499,3580,4869,2225,42,10018
226,Hakkasan,4ea832fe8b8154b19ffa31ad,40.75822103861813,-73.99015090774017,8220,11443,8365,148,10036
227,Kung Fu Little Steamed Buns Ramen,52b782a6498ee2a8438f4150,40.76159729016552,-73.98656783215048,6088,9037,4950,142,10019
228,Panda Express,57bdfbb4498e68c4b71697da,40.761017128295435,-73.99083090318739,562,981,646,7,10036
229,Chaan Teng,58267d7eb4f96246b74368b5,40.76218296501885,-73.98984588380407,711,865,379,3,10036
230,China Xiang,56f85fba498ed90422c0e8f5,40.75823445243313,-73.99244142800832,380,547,359,4,10036
231,Ollie's Sichuan Restaurant,4aa707ccf964a520d84b20e3,40.75869555247971,-73.99322083968677,4298,6336,4344,53,10036
232,Hing Won,4a537bb9f964a52054b21fe3,40.7583235037965,-73.9800829749137,1273,4052,3430,40,10036
233,Savour Sichuan,54db9021498ee7bd148d3d06,40.75315799135671,-73.9860598167793,495,736,487,9,10018
234,Ginger's,4ae7264af964a520e2a821e3,40.75317836771786,-73.9890789165319,3115,6112,5496,77,10018
235,Tasty Hand-Pulled Noodles II,55da5c5d498ea579b2923db6,40.76063191503683,-73.99101904180245,569,955,730,7,10036
236,Manting Chinese Famous Foods,556f5220498e875eca7b9c7a,40.76019318484058,-73.98314074118191,446,890,703,3,10019
237,Golden City,4b0980eff964a520611823e3,40.75337989525288,-73.99645332512665,393,1339,1194,12,10001
238,Zest Szechuan,56e067e2498ee4f64c6605b3,40.752657675388065,-73.98468550354744,291,422,376,7,10018
239,Ming's Chinese Food Express,4f325e2019836c91c7d0deb5,40.754301,-73.988741,9,33,33,0,10018
240,China Gourmet,4ad34ef5f964a520b9e320e3,40.7638459000745,-73.98505443709347,692,1943,1724,11,10019
241,Lili's 57,4a304695f964a52044991fe3,40.76534781354432,-73.98013219574734,1485,2810,2557,33,10019
242,Wu Liang Ye,3fd66200f964a520b4ea1ee3,40.758176633373814,-73.97968519480331,1955,2705,2597,41,10036
243,Modern Szechuan,54414b5a498e51b65b54dfd6,40.75578763299018,-73.98027031633278,36,142,122,0,10036
244,Kung Fu Kitchen,58f24fb30868a239e6757850,40.7614,-73.98698,48,54,53,0,10019
245,Mee Noodle Shop,4a652f71f964a5206cc71fe3,40.76535010393585,-73.9876721216885,1887,3351,3259,65,10019
246,Yumpling,59c151044b78c507e05447c9,40.764990865324066,-73.98223675697439,9,11,11,0,10019
247,Nanjing,5909fb755f68b97039deda86,40.762626,-73.984948,30,32,30,0,10019
248,Ming's Restaurant,4bb0e0e0f964a520e4653ce3,40.75289959873118,-73.9967027435105,215,628,564,4,10001
249,Chinese Culinary Competition,4ca4b82bf832a1cdc266a8e5,40.75884,-73.985102,6,10,10,0,10001
250,New Li Yuan Restaurant & Bakery,4a7b0519f964a520d1e91fe3,40.75448836700365,-73.9910519179946,270,890,818,16,10018
251,AA Jing,4a957d36f964a520652320e3,40.76191189992124,-73.99009104537538,1324,2245,2189,35,10036
252,Taste Kitchen,59e392e4916bc141768f54f0,40.753601,-73.993487,1,1,1,0,10018
253,China House,4b90466cf964a520b28033e3,40.79611360959822,-73.94861424336234,40,217,209,1,10029
254,Chinatown East Restaurant,4b292040f964a520459924e3,40.78274531667897,-73.950934857016,1904,4217,3780,27,10128
255,La Preciosa,4c157adca5eb76b04f78c3b7,40.798436038156716,-73.94098620994788,126,249,219,5,10029
256,A-Jiao Sichuan Cuisine,52ed887d498ecc66ab2e02b0,40.78302391641758,-73.94798723979062,88,169,168,6,10128
257,Steak and Hoagies,4ae650f0f964a52063a621e3,40.79645316593038,-73.94751165486693,224,746,565,4,10029
258,Moon House,4d9f6b7fa428a1cdf404c804,40.78813873952059,-73.94716118326511,360,711,440,7,10029
259,Wing Wah Chinese Restaurant,4c19239a98f4a593dd9ffff5,40.79777883922172,-73.93463021138618,27,83,76,2,10035
260,Dragon Town Chinese Restaurant,4ef9fd7d0e013b212849c1d0,40.79545655282333,-73.9421674523391,28,79,78,0,10029
261,Five Luck Restaurant,4c544d0e72cf0f47267553d4,40.78340048673886,-73.94779101118264,78,174,172,6,10128
262,Great Wall,4be359d91dd22d7fd77c96bd,40.79520258525362,-73.93641552496496,19,45,45,1,10029
263,Double Dragon  Chinese Restaurant,4cb8fe17dd41a35ddd02dfa0,40.7893941770116,-73.94073235671101,32,91,90,0,10029
264,Yummy City,51562a31e4b0c8136cbf3333,40.788212812789716,-73.94956663651698,22,49,46,3,
265,Wing Sing Chinese Restaurant,4e4e4f67bd4101d0d7a76773,40.798284,-73.941869,2,2,2,0,10029
266,Asian Gourmet,51217189e4b0227e25949a37,40.78764051091013,-73.95035303433103,46,73,67,2,10029
267,Wing Gong,4de462f1fa7651589f2da7bf,40.79169853675768,-73.93801712668949,8,40,36,0,10029
268,China King,4bfc11181be376b0f61bf8b4,40.79418925650328,-73.94500891029698,46,99,71,1,10029
269,Yoan Ming Garden,3fd66200f964a5207ee81ee3,40.78824591235725,-73.95342121577416,117,319,289,9,10029
270,Fu Wing Chinese,4b788bf3f964a520e3d52ee3,40.79190518563129,-73.94603067689934,30,80,78,2,10029
271,Fa Shing Chinese Restaurant,4c44f0662d3ec9b63fa32fae,40.79737769103096,-73.94033052802925,27,77,53,1,10029
272,New Hong Kong Kitchen,4cf461d3cc61a35d2856259e,40.80027458419557,-73.94056014452093,34,97,92,2,10035
273,Great Wok,4d817564d95df04debd144bc,40.790387,-73.947673,47,103,101,2,10029
274,Jimmy's Chinese,4c4f160adb2c20a150187975,40.799486,-73.946153,16,70,70,2,10029
275,new good taste 2 chinese restaurant,4d5dc72cd439cbff805240ba,40.787815,-73.944644,3,6,4,0,10029
276,Chinese Mirch,4bef3bf7ea570f47501d8fd2,40.78317357392835,-73.94773006439209,17,21,21,2,10128
277,Grand Eastern,4af06300f964a52096db21e3,40.78678048929294,-73.95021782258036,66,135,135,4,10029
278,Forever Best Time,4cc0fd30d363721edd9257c9,40.788981207957114,-73.94850470738544,9,55,55,1,10029
279,King Let Kitchen,4e4095b6b0fb1399f6e42d93,40.787148,-73.948141,2,4,4,0,
280,Empire Corner II,4b983573f964a520523435e3,40.80054460190812,-73.94735381726888,45,600,600,3,10029
281,Best Time Chinese & Tex-Mex Food,4cd5ef14fb5954811370e150,40.7890397304306,-73.94865395183183,32,69,69,3,10029
282,Good Taste 360 Inc.,56e7515bcd10a48b9c80d85e,40.795982,-73.9359,4,42,42,0,10029
283,King Dragon,4e32df82d4c00077f65fa95c,40.79269991498689,-73.95012461124239,49,137,119,2,10029
284,Grace Wok Chinese restaurant,51ee022f498e7529ce5499d2,40.78920806500626,-73.94401583983345,8,16,16,0,10029
285,Xiang Dragon,53824904498eefac45695013,40.798259,-73.933822,8,11,4,1,10035
286,China Moon,4e4e4e2abd4101d0d7a749fd,40.785463689780535,-73.94251187370708,2,3,3,0,10029
287,Happy Wok,4e4e4e2bbd4101d0d7a74a13,40.78867921165919,-73.94045107672132,13,32,32,0,10029
288,New Delicious Inc,4dab9063fa8cc76497507739,40.78773780084235,-73.94404454136345,45,137,118,3,
289,Lantern House,4e4e4e26bd4101d0d7a74987,40.79552,-73.935761,0,0,0,0,10029
290,Red Star Chinese Food,4f525e36e4b0b5d9ddd272fd,40.80065018564576,-73.94854488859387,7,7,7,0,10029
291,Kim Wah Chinese Restaurant,4f3247cd19836c91c7c8254b,40.796004,-73.935408,1,1,1,0,10029
292,rong shing chinese take-away,54220c4c498ef2e2f6af084e,40.79207666572533,-73.94147860776503,28,83,40,1,10029
293,King Foo,4e3383d9483b5fa5874ddbd0,40.78979959643873,-73.94309222260392,28,127,103,1,10029
294,Kam Luang Kitchen,4af8577ff964a520610c22e3,40.78799865882384,-73.94923370801148,13,32,29,0,10029
295,Feng Shun Chang Kitchen,4e4004448877b00cfc67de74,40.799058561769215,-73.95151827484472,13,18,18,0,10026
296,Xiang Dragon,4d9768e261a3a1cdf592b442,40.798309326171875,-73.93386840820312,18,59,53,0,10035
297,Wok Express,4d9a031d0caaa14362c2d2b3,40.79828514222675,-73.93979092820226,22,41,41,1,10035
298,Evergreen Asian Cuisine,5110728fe4b0ed5bb1df74e8,40.788768,-73.949342,6,8,8,0,10029
299,Xing Dragon,4e4e4e27bd4101d0d7a749a4,40.795980144790306,-73.93768991881096,11,77,75,1,10029
300,Hong Kong Chinese,4daa52fb6a2303012f0c3f72,40.793096175193,-73.94538202794013,28,64,51,0,10029
301,Teng Dragon,4b5f4964f964a5200cb229e3,40.79619015764555,-73.93532570401732,66,162,157,4,10035
302,Delicious Inc.,52602c82498e6c42e034f51a,40.78945294457354,-73.94405028166895,2,2,2,0,10029
303,La Preciosa,4c157adca5eb76b04f78c3b7,40.798436038156716,-73.94098620994788,126,249,219,5,10029
304,Perfect Taste,516b0589e4b075b2dc729f0a,40.8073451339418,-73.93820656257712,19,83,71,0,10036
305,Wing Wah Chinese Restaurant,4c19239a98f4a593dd9ffff5,40.79777883922172,-73.93463021138618,27,83,76,2,10035
306,Dragon Town Chinese Restaurant,4ef9fd7d0e013b212849c1d0,40.79545655282333,-73.9421674523391,28,79,78,0,10029
307,Great Wall,4be359d91dd22d7fd77c96bd,40.79520258525362,-73.93641552496496,19,45,45,1,10029
308,Double Dragon  Chinese Restaurant,4cb8fe17dd41a35ddd02dfa0,40.7893941770116,-73.94073235671101,32,91,90,0,10029
309,Wing Sing Chinese Restaurant,4e4e4f67bd4101d0d7a76773,40.798284,-73.941869,2,2,2,0,10029
310,Wing Gong,4de462f1fa7651589f2da7bf,40.79169853675768,-73.93801712668949,8,40,36,0,10029
311,Wah Lung Kitchen,4cec466c3b03f04d6fc12ddc,40.78204224885947,-73.91451416083854,38,152,145,4,11105
312,China King,4bfc11181be376b0f61bf8b4,40.79418925650328,-73.94500891029698,46,99,71,1,10029
313,Foo Hing Chinese Restaurant,4e31c190b0fbb985a507465a,40.80619769137015,-73.92050211847527,14,175,175,2,10454
314,Hang Chou,4c086a28009a0f470f2de6bf,40.802546751321536,-73.9365188545079,25,49,43,1,10035
315,Fu Wing Chinese,4b788bf3f964a520e3d52ee3,40.79190518563129,-73.94603067689934,30,80,78,2,10029
316,New Dragon,587f814824ca6a66496463f1,40.8020506,-73.934461,1,1,1,0,10035
317,Fa Shing Chinese Restaurant,4c44f0662d3ec9b63fa32fae,40.79737769103096,-73.94033052802925,27,77,53,1,10029
318,New Hong Kong Kitchen,4cf461d3cc61a35d2856259e,40.80027458419557,-73.94056014452093,34,97,92,2,10035
319,Jimmy's Chinese,4c4f160adb2c20a150187975,40.799486,-73.946153,16,70,70,2,10029
320,New Ming Qi House Restaurant,4f32396019836c91c7c26482,40.807889,-73.920316,0,0,0,0,10454
321,new good taste 2 chinese restaurant,4d5dc72cd439cbff805240ba,40.787815,-73.944644,3,6,4,0,10029
322,Little Lili's,4e4cd070bd413c4cc66c5f3a,40.804093,-73.937625,0,0,0,0,10035
323,Good Taste 360 Inc.,56e7515bcd10a48b9c80d85e,40.795982,-73.9359,4,42,42,0,10029
324,Good Taste,4ada69bbf964a520622221e3,40.80716993999382,-73.94590014862239,51,169,165,3,10027
325,Good Choice Chinese Restaurant,4df3e68688772e1f81559d14,40.806934798146116,-73.91735602373572,15,28,27,0,10454
326,Grace Wok Chinese restaurant,51ee022f498e7529ce5499d2,40.78920806500626,-73.94401583983345,8,16,16,0,10029
327,Xiang Dragon,53824904498eefac45695013,40.798259,-73.933822,8,11,4,1,10035
328,China House,4fc2c9cfe4b0c9a9f1e0b6ce,40.80799649886965,-73.92030692429745,3,4,4,0,10454
329,China Moon,4e4e4e2abd4101d0d7a749fd,40.785463689780535,-73.94251187370708,2,3,3,0,10029
330,Happy Wok,4e4e4e2bbd4101d0d7a74a13,40.78867921165919,-73.94045107672132,13,32,32,0,10029
331,New Delicious Inc,4dab9063fa8cc76497507739,40.78773780084235,-73.94404454136345,45,137,118,3,
332,Lantern House,4e4e4e26bd4101d0d7a74987,40.79552,-73.935761,0,0,0,0,10029
333,Kim Wah Chinese Restaurant,4f3247cd19836c91c7c8254b,40.796004,-73.935408,1,1,1,0,10029
334,China King,4dc01beaa86e2f4250b95c39,40.803275,-73.938247,21,29,18,0,10035
335,rong shing chinese take-away,54220c4c498ef2e2f6af084e,40.79207666572533,-73.94147860776503,28,83,40,1,10029
336,King Foo,4e3383d9483b5fa5874ddbd0,40.78979959643873,-73.94309222260392,28,127,103,1,10029
337,Fast Wok,4ddd34f11838306b8218712e,40.807935142288024,-73.91899797004156,13,28,27,2,10454
338,New Wok,4e0a2d13a809495e61abc928,40.80649955305005,-73.91575425157102,11,12,12,0,10455
339,Xiang Dragon,4d9768e261a3a1cdf592b442,40.798309326171875,-73.93386840820312,18,59,53,0,10035
340,Wok Express,4d9a031d0caaa14362c2d2b3,40.79828514222675,-73.93979092820226,22,41,41,1,10035
341,Xing Dragon,4e4e4e27bd4101d0d7a749a4,40.795980144790306,-73.93768991881096,11,77,75,1,10029
342,Hong Kong Chinese,4daa52fb6a2303012f0c3f72,40.793096175193,-73.94538202794013,28,64,51,0,10029
343,Teng Dragon,4b5f4964f964a5200cb229e3,40.79619015764555,-73.93532570401732,66,162,157,4,10035
344,Delicious Inc.,52602c82498e6c42e034f51a,40.78945294457354,-73.94405028166895,2,2,2,0,10029
345,In & Out,52546bb411d23603f2c8a469,40.79611410368251,-73.93577832489945,11,18,16,2,10029
346,Xi'an Famous Foods,59035bc43d47912d4b97f3fc,40.74061038924817,-73.98729229663121,1041,1771,1049,13,10010
347,Baohaus,4e32d529483bf02b1f8dc50f,40.732606089271286,-73.98557692419998,13983,22195,17027,282,10003
348,Jue Lan Club,562a58d2498e979da966b1b5,40.74087684146646,-73.99358462925947,1375,1777,1125,16,10011
349,Bao Bao Cafe 咱家小馆,4fb2522de4b0e1e9691c301b,40.74093785708109,-73.98379780455603,1396,2416,980,15,10010
350,Burp Bowl Café,56b3fa1f498e61baecfcf541,40.74191920217618,-73.9825955929267,292,438,281,5,10016
351,Home's Kitchen,45cf45c4f964a520a0421fe3,40.739651099530946,-73.98907002702562,1799,3727,2574,25,10010
352,Di Di Dumpling,4d49980d11a36ea81c80291c,40.74033299236559,-73.98430275966984,1979,3296,2577,51,10010
353,The Cottage,4ace96a9f964a52055d120e3,40.735329925960684,-73.98799666258779,2622,4508,3879,44,10003
354,New Epicurean Chinese Restaurant,4f32819e19836c91c7de7360,40.745172,-73.984819,12,36,36,0,10002
355,Noodles 28,4a908234f964a520451820e3,40.74274468036926,-73.98032536773376,1188,2296,2095,25,10016
356,Lotus Blue,59b80f8125fb7b648e26cdda,40.735997,-73.991922,19,19,19,1,10003
357,No. 1 Kitchen,4bf471d3e5eba5930bb01f90,40.73232924599403,-73.98178795342473,134,343,338,4,10003
358,Asian Hong Kong,504f990de4b0eacd3db68aad,40.74433797653551,-73.98124570064518,66,148,126,3,10016
359,28 Fusion Sushi/Chef 28,4ac4cfd1f964a520119f20e3,40.74369840605878,-73.98514777637979,817,1768,1663,20,10016
360,Great Sichuan,577e8f25498e8dfabe535a7f,40.741004,-73.981372,49,94,92,2,10016
361,AUNTIE GUAN'S KITCHEN,5602cb59498eda13a4d6d1a3,40.73843065649325,-73.98215570377323,140,213,206,4,10010
362,Mr Bing,59b6d84347f8761788c7a1e0,40.742998,-73.98874,9,9,9,0,10010
363,Café China,4e3484038877beb5e9a22a0b,40.7499796904135,-73.98223427700086,10367,17182,9342,240,10016
364,Xi'an Famous Foods,59035bc43d47912d4b97f3fc,40.74061038924817,-73.98729229663121,1041,1771,1049,13,10010
365,Xi'an Famous Foods,54b80565498e6d4f36168cd8,40.74816543859803,-73.9840025346209,6030,11119,5269,75,10016
366,Dong Chun Hong,4ee279ecc2eee7f3576fd40e,40.74702108811758,-73.9855752913469,2969,6027,4972,35,10001
367,Little Alley,592865d1286fda44e1f357f7,40.747328666024316,-73.97701152413177,471,603,339,5,10016
368,Bao Bao Cafe 咱家小馆,4fb2522de4b0e1e9691c301b,40.74093785708109,-73.98379780455603,1396,2416,980,15,10010
369,Main Noodle House,4a3fcc65f964a520f2a31fe3,40.75204369049894,-73.98613800616226,2433,4839,3956,48,10018
370,Burp Bowl Café,56b3fa1f498e61baecfcf541,40.74191920217618,-73.9825955929267,292,438,281,5,10016
371,Di Di Dumpling,4d49980d11a36ea81c80291c,40.74033299236559,-73.98430275966984,1979,3296,2577,51,10010
372,Eden Wok,44746440f964a520ae331fe3,40.74757396159143,-73.98247468025501,632,1010,799,16,10016
373,Profit  Chinese Restaurant II,5812daa738fa2403db6161c7,40.74565099999999,-73.97557599999999,39,119,92,0,10016
374,New Epicurean Chinese Restaurant,4f32819e19836c91c7de7360,40.745172,-73.984819,12,36,36,0,10002
375,Hyo Dong Gak,49ebe710f964a52044671fe3,40.75013168829856,-73.98632563528624,2395,4430,4174,35,10001
376,Noodles 28,4a908234f964a520451820e3,40.74274468036926,-73.98032536773376,1188,2296,2095,25,10016
377,Mapo Tofu,4b5f33f5f964a52004ad29e3,40.749707008050336,-73.97729142392866,1846,3300,2474,37,10016
378,La Vie En Szechuan,4fe4d63de4b00ca0cf81f604,40.747478998882734,-73.98440087625113,1511,2629,2451,43,10016
379,Hunan Manor,4e5d7cbffa76a4cf149457eb,40.7496834740331,-73.97727736458,1144,1756,1534,33,10016
380,Evergreen On 38,4a804d3ff964a520e6f41fe3,40.75067155041589,-73.9818197236104,1174,2320,2034,26,10016
381,East Palace,4af08005f964a520b0dc21e3,40.75092594433933,-73.97141104898026,284,806,732,9,10017
382,Jian Bing Man,56e4af39498e3f5a80a875d9,40.74761866341857,-73.98629486560822,137,168,168,6,10001
383,Asian Hong Kong,504f990de4b0eacd3db68aad,40.74433797653551,-73.98124570064518,66,148,126,3,10016
384,28 Fusion Sushi/Chef 28,4ac4cfd1f964a520119f20e3,40.74369840605878,-73.98514777637979,817,1768,1663,20,10016
385,Great Sichuan,577e8f25498e8dfabe535a7f,40.741004,-73.981372,49,94,92,2,10016
386,AUNTIE GUAN'S KITCHEN,5602cb59498eda13a4d6d1a3,40.73843065649325,-73.98215570377323,140,213,206,4,10010
387,Xi'an Famous Foods,517021ffe4b0ad9829ae7815,40.755964519301465,-73.98074456728409,12687,24202,13447,238,10036
388,Little Alley,592865d1286fda44e1f357f7,40.747328666024316,-73.97701152413177,471,603,339,5,10016
389,Panda Express,576aaa27498e6247856c2f6c,40.75639711250114,-73.97027485630692,839,1284,701,6,10022
390,Jasmine Restaurant,58b455dc8cfe547321f5483f,40.75487499478603,-73.97047077846963,273,331,172,2,10017
391,Hot Kitchen,5324f85e498ebd4c81998cff,40.75705798582649,-73.96752651882714,1277,2455,1298,12,10022
392,Hop Won,4b1802c8f964a52062cb23e3,40.753192129237874,-73.97414229152304,996,2944,2195,22,10017
393,Peking Duck House,46d579dbf964a520654a1fe3,40.75710625998284,-73.96799001615966,2863,3881,3203,28,10022
394,Mapo Tofu,4b5f33f5f964a52004ad29e3,40.749707008050336,-73.97729142392866,1846,3300,2474,37,10016
395,Hunan Manor,4e5d7cbffa76a4cf149457eb,40.7496834740331,-73.97727736458,1144,1756,1534,33,10016
396,Mee Noodle,3fd66200f964a52076e71ee3,40.75427756965342,-73.96900466895251,1753,3611,2859,32,10017
397,Evergreen On 38,4a804d3ff964a520e6f41fe3,40.75067155041589,-73.9818197236104,1174,2320,2034,26,10016
398,Radiance Noodle bar,51e032c9498e129f7c7f5921,40.755563150263676,-73.97056323851085,102,301,255,4,10022
399,Mr Bing,58c7333b1e1de5102e3ff7e3,40.75442784387706,-73.97696347035985,91,134,134,7,
400,Modern Szechuan,54414b5a498e51b65b54dfd6,40.75578763299018,-73.98027031633278,36,142,122,0,10036
401,East Palace,4af08005f964a520b0dc21e3,40.75092594433933,-73.97141104898026,284,806,732,9,10017
402,Fusion Grills,4bb4c69986a8d13afdd5de7f,40.757654432201406,-73.96938519330669,370,1034,772,6,10022
403,Wok Chi,59d6cdb2123a190a700e4ab8,40.75298,-73.97749,4,4,4,0,10017
404,Jef Chinese,5836016200841a1ae3ed8189,40.754043,-73.969371,16,23,22,1,10017
405,China Moon,4b395570f964a520d05a25e3,40.75644442864546,-73.97778916556618,466,745,717,9,10017
406,Xi'an Famous Foods,57d1efb5498e018d15de8ba3,40.76194320113338,-73.97745613307671,2003,3219,1572,15,10019
407,Joe's Shanghai 鹿鸣春,3fd66200f964a520bfe71ee3,40.762981662880975,-73.9758833920851,13930,20436,14630,211,10019
408,Kung Fu Little Steamed Buns Ramen,55495032498e99526354bbd8,40.75929923102627,-73.96948608427324,1841,3179,1289,37,10022
409,Panda Express,576aaa27498e6247856c2f6c,40.75639711250114,-73.97027485630692,839,1284,701,6,10022
410,Dim Sum Palace,5953ea99f4b52556d6b64cc7,40.76252409672259,-73.97700765162283,171,197,126,4,10019
411,Jasmine Restaurant,58b455dc8cfe547321f5483f,40.75487499478603,-73.97047077846963,273,331,172,2,10017
412,Mr. Chow,3fd66200f964a520adea1ee3,40.758702868596544,-73.96455191801327,3491,4526,2718,56,10022
413,Philippe,4a987360f964a520192c20e3,40.76407054729209,-73.9704792377402,4982,7623,6259,100,10022
414,Hot Kitchen,5324f85e498ebd4c81998cff,40.75705798582649,-73.96752651882714,1277,2455,1298,12,10022
415,Hop Won,4b1802c8f964a52062cb23e3,40.753192129237874,-73.97414229152304,996,2944,2195,22,10017
416,Land Of Plenty,4f208436e4b0e2de56db2754,40.76069209825678,-73.9666620391526,1970,3903,3044,63,10022
417,Grand Sichuan Eastern,4a6baed1f964a52097cf1fe3,40.75825611142862,-73.96604429310779,1315,2237,1550,23,10022
418,Peking Duck House,46d579dbf964a520654a1fe3,40.75710625998284,-73.96799001615966,2863,3881,3203,28,10022
419,Asian 59,50196a54e4b0a36603352454,40.76145926641857,-73.96620967105336,635,1344,879,9,10022
420,Wok Chi - Stir Fry Kitchen,57e959b8cd1065372b1b68ad,40.75913059262725,-73.96830700584523,171,279,183,4,10022
421,Hunan House Manhattan,53909c80498ea85cdddabcca,40.763152361299426,-73.9765159651012,453,750,628,4,10019
422,Lilli and Loo,4adcb02ff964a520c52e21e3,40.763811,-73.967072,2891,4871,3592,43,10065
423,Tang Pavilion,4b315e9bf964a520980525e3,40.76282779339493,-73.97729519288663,1295,1690,1432,16,10019
424,Mee Noodle,3fd66200f964a52076e71ee3,40.75427756965342,-73.96900466895251,1753,3611,2859,32,10017
425,Lychee House,4ba991e0f964a520f22e3ae3,40.759284471065456,-73.96959177455228,753,1228,1086,16,10022
426,Radiance Noodle bar,51e032c9498e129f7c7f5921,40.755563150263676,-73.97056323851085,102,301,255,4,10022
427,Mr Bing,58c7333b1e1de5102e3ff7e3,40.75442784387706,-73.97696347035985,91,134,134,7,
428,Fusion Grills,4bb4c69986a8d13afdd5de7f,40.757654432201406,-73.96938519330669,370,1034,772,6,10022
429,Shun Lee Palace,3fd66200f964a520b3ea1ee3,40.75919275592791,-73.96900074292421,1484,1909,1656,31,10022
430,Wok Chi,59d6cdb2123a190a700e4ab8,40.75298,-73.97749,4,4,4,0,10017
431,Jef Chinese,5836016200841a1ae3ed8189,40.754043,-73.969371,16,23,22,1,10017
432,Chi at The Plaza,54da3b2f498ecfe2929e9dbc,40.76439503612512,-73.97447724411876,62,92,90,0,10019
433,Xi'an Famous Foods,56ccead2498e8cad8d3cedff,40.72105252664767,-73.99606868201784,2475,4549,2264,36,10012
434,Pinch Chinese,58a4fb9d30ecc618cdd5c3e2,40.7264,-74.001813,1213,1592,943,19,10012
435,Nom Wah Nolita,57dd91ce498e08473d3cc30c,40.72042694023345,-73.99433031755756,1912,2543,1279,31,10012
436,Mimi Cheng's,56ddc1f8cd1028ec415bf35a,40.720468,-73.996443,894,1189,810,19,10013
437,Uncle Ted's Modern Chinese Cuisine,51a012dc498eefd18e57b63e,40.72863919143887,-74.0001074811426,1909,2718,2074,43,10012
438,The Rice Noodle 老滇味,586d8c0b88641b556fd1f7b3,40.72930324397628,-74.00144027624432,140,184,169,3,10012
439,Hot Pot Village,59e7dc34f62e0902f02b3425,40.721296,-73.993465,3,3,3,0,10002
440,Nom Wah Tea Parlor,49f220a3f964a520ee691fe3,40.714512,-73.998235,15415,24293,18907,335,10013
441,Jing Fong Restaurant 金豐大酒樓,3fd66200f964a520d5e31ee3,40.715806532202514,-73.99704898030589,23842,40382,28236,275,10013
442,Shanghai Café Deluxe,46936ee3f964a520d0481fe3,40.71733412016059,-73.9974851229737,17375,33191,23262,340,10013
443,Joe's Shanghai 鹿嗚春,3fd66200f964a52067e61ee3,40.7146424849308,-73.99764195084572,25276,38020,30360,535,10013
444,Tai Pan Bakery 大班,49eb223ff964a520a6661fe3,40.717026,-73.998079,8999,13398,6523,82,10013
445,Golden Unicorn Restaurant 麒麟金閣,3fd66200f964a520ece31ee3,40.713628504646834,-73.99723023176193,18689,31475,20498,213,10002
446,Great N.Y. Noodletown,3fd66200f964a520b1ea1ee3,40.7150640924547,-73.99688829591487,11921,23237,15885,268,10013
447,Big Wong King 大旺,3fd66200f964a520ede41ee3,40.71619620821637,-73.99830311536789,9427,16791,11704,168,10013
448,Shanghai Asian Manor,4bcf9774a8b3a5939497625f,40.714423425836316,-73.99890393018723,9816,16096,11051,216,10013
449,Xi'an Famous Foods,56ccead2498e8cad8d3cedff,40.72105252664767,-73.99606868201784,2475,4549,2264,36,10012
450,Pinch Chinese,58a4fb9d30ecc618cdd5c3e2,40.7264,-74.001813,1213,1592,943,19,10012
451,Cha Chan Tang 茶餐廳 (Cha Chan Tang),4cd37295baf2f04dfc22afa3,40.715294,-73.998959,7581,18513,13590,111,10013
452,China Blue,5237264111d27e8e90c10357,40.724047064916626,-74.01019614169627,3780,6094,2966,68,10013
453,Noodle Village 粥麵軒,49d3deadf964a5201d5c1fe3,40.71412788438359,-73.99874558609585,4909,9271,6993,106,10013
454,Macao Trading Co.,49cebdeaf964a520815a1fe3,40.719759,-74.003981,13763,20678,16543,204,10013
455,Nom Wah Nolita,57dd91ce498e08473d3cc30c,40.72042694023345,-73.99433031755756,1912,2543,1279,31,10012
456,Lan Zhou Handmade Noodle & Dumpling,59e7bfa8356b4970aea1be3f,40.715538,-73.996738,60,69,69,1,10013
457,Wah Fung Number 1 Fast Food 華豐快飯店,4a96bf8ff964a520ce2620e3,40.71727831655619,-73.99417731304892,2679,4601,2674,75,10002
458,Tasty Hand-Pulled Noodles 清味蘭州拉麵,4a7655b0f964a520dce21fe3,40.7142079238429,-73.99784713983536,6775,11222,8907,155,10013
459,Dim Sum Go Go,3fd66200f964a520fbe31ee3,40.71360309794179,-73.99797072478428,7905,11658,8172,129,10038
460,Wo Hop Restaurant,3fd66200f964a52037e31ee3,40.71426891504387,-73.99888783693314,10308,17429,15098,259,10013
461,Joy Luck Palace,569d47a0498eeb7fbd002030,40.7171301715229,-73.99750772882881,2455,3567,2004,34,10013
462,Xi'an Famous Foods,5894c9a15e56b417cf79e553,40.71526003880638,-73.99724173202145,830,1080,566,8,10013
463,Bo Ky Restaurant 波記潮州小食,4a00df67f964a520ba701fe3,40.71570510840918,-73.99869598754455,4515,8110,4862,73,10013
464,Mimi Cheng's,56ddc1f8cd1028ec415bf35a,40.720468,-73.996443,894,1189,810,19,10013
465,Taiwan Pork Chop House 臺灣武昌好味道,49f61fe9f964a520046c1fe3,40.71436751328666,-73.99786861896594,3125,6430,5370,70,10013
466,Wonton Noodle Garden,4e4e4c83bd4101d0d7a725d5,40.715869,-73.998174,4061,6051,4039,32,10013
467,Mei Li Wah,49d55b3bf964a5208d5c1fe3,40.715573,-73.997995,4428,8253,6860,134,10013
468,Peking Duck House,3fd66200f964a520a0e61ee3,40.71458915982214,-73.9988359474263,6423,8157,6814,83,10013
469,Oriental Garden 福臨門海鮮酒家,3fd66200f964a5209fe61ee3,40.71589091885152,-73.99733645578446,5003,8352,6960,84,10013
470,Chinese Tuxedo,582543c1b39f9613c18d8e2f,40.714430163948634,-73.99798364729664,818,930,799,25,10013
471,XO Taste,4e8741b1b63493832df29d65,40.71683793455089,-73.99684926252124,2328,4443,2587,21,10013
472,Tasty Dumpling,4a8977f0f964a520130820e3,40.714863,-73.99948,4529,7848,4379,86,10013
473,Excellent Dumpling House,3fd66200f964a52069e61ee3,40.71817725689605,-74.00057500995398,9119,12486,5914,134,10013
474,Sun Sai Gai Restaurant,4a81ac53f964a5203af71fe3,40.71736941942955,-73.9994145838037,2194,3078,1931,56,10013
475,Ping's Seafood,3fd66200f964a5206ce91ee3,40.71442446543967,-73.99883201776339,5005,8512,7343,76,10013
476,Lung Moon Bakery,4b79a8d0f964a52030092fe3,40.71651806515868,-73.99895204041454,1570,2482,1678,35,10013
477,Buddha Bodai 佛菩提素菜,459b830af964a5208b401fe3,40.71379837914967,-73.99867652064822,3984,6217,4789,110,10013
478,funny bbq 聚点,5606c755498ec78f89449528,40.71760018030402,-73.99527315155541,473,568,321,3,10013
479,M Star Cafe 明星茶餐廳,4aedda39f964a52089cf21e3,40.71420007029447,-73.99659362522682,1676,5332,3477,37,10002
480,Teado,4b2ebc57f964a520e3e524e3,40.71718422928588,-73.9948832988739,2656,5218,3473,55,10002
481,88 Palace,4a479af0f964a520dda91fe3,40.71391929696622,-73.99427629912611,5912,8745,3759,36,10002
482,Red Egg,48636f02f964a520e3501fe3,40.71882661910382,-73.99938115906414,8168,12185,8602,100,10013
483,Sichuan Hot Pot,53de8241498e5e65f14a2fbb,40.71499785551627,-73.9986699217537,541,678,440,13,10013
484,XO Kitchen,49f50c47f964a520896b1fe3,40.71748184806784,-73.99604732552757,2864,5477,4814,63,10013
485,Golden Dragon Boat Cafe & Bakery,4b9580fff964a52045a634e3,40.717773499495344,-73.99516895214416,327,1022,883,9,10002
486,May Wah Pork Chop Fast Food,3fd66200f964a52099e61ee3,40.71833211813762,-73.99844389067974,2166,3859,2303,42,10013
487,Royal Seafood Restaurant,4bdd7814b0f5c928c4684ce3,40.717304649702356,-73.99749740784958,2681,5446,4883,35,10013
488,Chatham Seafood Restaurant,49c68407f964a52052571fe3,40.71388466954485,-73.99826556444168,1793,3626,3057,16,10038
489,Buddha Bodai Kosher Vegetarian,54e771c8498e750b0dee9579,40.71632974553932,-73.99909379234619,883,1232,675,13,10013
490,Buddakan,44e9b421f964a520a5371fe3,40.74224088989257,-74.0046067331331,24720,32113,27705,472,10011
491,Pinch Chinese,58a4fb9d30ecc618cdd5c3e2,40.7264,-74.001813,1213,1592,943,19,10012
492,Hao Noodle and Tea by Madam Zhu's Kitchen,57253c92498e3c0f9a690b7c,40.7334030786336,-73.99980215251975,3492,4744,1672,49,10014
493,Shorty Tang Noodles,582a4088da08cb6d478ce53a,40.74026915851698,-74.0021262953133,730,884,443,14,10011
494,Very Fresh Noodles,56b4157d498e3b7e896370d8,40.74226558025584,-74.0063798133011,1157,1546,1287,27,10011
495,RedFarm,4e1df590b61c7cb34d9735a8,40.73416895229589,-74.00625367536026,9021,13007,11025,260,10014
496,Decoy,526eeb54498e9674b5d9034a,40.734181587313365,-74.00646239519119,2379,3110,2564,82,10014
497,Uncle Ted's Modern Chinese Cuisine,51a012dc498eefd18e57b63e,40.72863919143887,-74.0001074811426,1909,2718,2074,43,10012
498,Niu Noodle House,4ff0e85ee4b036efb47b6147,40.73443302379938,-73.99989990069467,3063,4038,3034,58,10014
499,The Rice Noodle 老滇味,586d8c0b88641b556fd1f7b3,40.72930324397628,-74.00144027624432,140,184,169,3,10012
500,King Wok,4a9d5887f964a5202b3820e3,40.72902959500233,-74.00524313972241,768,2305,2024,24,10014
501,Grand Sichuan Eastern,4dfa9cfc483b085eeda1dcab,40.74258761218343,-74.00043504625874,925,1761,1653,29,10011
502,Village Express Asian Cuisine,59dd3f41db2aeb3d9584f269,40.732298,-74.003341,2,2,2,0,10014
503,Grand Sichuan,534dbabe498e08c1f16a232b,40.730203572837,-74.00472617718445,432,689,556,9,10014
504,TT,51d7904a498ebd04dcc4d973,40.73262405395508,-74.0098648071289,1,1,1,0,
505,Noodles & Dumplings,4feb47bde4b0040bee456da2,40.731959,-74.00383,50,57,57,2,10014
506,Doo Jo Sushi,4c3936452c8020a1be658c00,40.729600000000005,-74.000885,2,2,2,0,10012
507,Acdc,51d78ee3498efc2f2d1cb4ad,40.73220443725586,-74.01051330566406,1,1,1,0,
508,So Ho Kitchen,4f32279e19836c91c7bb8f69,40.724511,-73.999763,0,0,0,0,10012
509,Golden Wok,4b55e944f964a520fcf527e3,40.732687643938974,-74.00814917724418,162,343,323,8,10014
510,QwQw,51d78f28498ec29264f6206d,40.73262405395508,-74.0098648071289,1,1,1,0,
511,Best Chinese,4dd84f25d22d38ef42ff02ef,40.74000353439989,-74.00321227270925,3,3,3,0,
512,China Palace,501e1020e4b0457aae749ed2,40.74187469482422,-74.00077819824219,0,0,0,0,10011
513,Super Noodle,4fcd4ddee4b0cc685836f14f,40.73193555384507,-74.00368628753883,285,427,425,9,10014
514,Fish Market,4a1d6741f964a520727b1fe3,40.70704985925295,-74.00180780098188,2787,4967,3416,57,10038
515,China Chalet,4a3db1e9f964a5209ba21fe3,40.70663840849561,-74.01264754403648,1871,2618,2095,36,10006
516,Ningbo Cafe,5742850f498e0114292c6a52,40.70794582988142,-74.01832186970051,336,429,146,2,10280
517,Yips Restaurant,4b3b9355f964a5202e7625e3,40.70495044677767,-74.01236009873962,686,1570,1125,20,10004
518,Chen's Buffet Bar,5851831bfad9dc11232fcb6f,40.706983,-74.008412,27,55,53,0,10005
519,No 1 Chinese Restaurant,4d421b1fc95b721e988d662b,40.70460891760118,-74.01042780561745,129,191,188,2,10004
520,Number One Chinese,4ce56fbd5bf68cfa65f23c17,40.704573575379875,-74.01040987598235,253,521,493,12,10004
521,Happy Garden,4ee168e38231cd14a23f4197,40.68738630144408,-73.99785266606374,38,113,111,1,11201
522,Jiangnan Chinese Cuisine,591d9063eacf4550665e3f18,40.70823051511181,-74.01391625404358,10,12,12,0,10006
523,New Golden Chopsticks,4af31b7ef964a520b5ea21e3,40.703941419074944,-74.01050545706468,165,475,463,14,10004
524,Szechuan & Beyond,5841b0267220e63396cb6cea,40.708866,-74.00919,6,6,6,0,10005
525,Su Hang Restaurant,575808cf38fa9ce070c7ce1b,40.70836877416477,-74.01407718658447,2,2,2,0,10006
526,Budtharasa Thai Food,4b3bebdff964a5206a7e25e3,40.70885961986275,-74.01387471996154,142,547,531,5,10006
527,Chan's Golden City,4b8c86bdf964a52028d532e3,40.687415599823,-73.997781,19,30,30,1,11201
528,Red Apple,4dc0a27852b1877d85a2379c,40.684497744502075,-74.00291754099462,44,111,111,1,11231
529,Oriental Express,4bb2195af964a520aeb83ce3,40.70744302132325,-74.00846870421927,260,853,763,5,10005
530,Zen Palate John Street,4f3296ff19836c91c7e69941,40.707833,-74.005993,1,1,1,0,10038
531,China Max,51ec27ce498e6aba2b159f3a,40.70149150976206,-73.99980928755299,3,6,6,0,
532,Dinastia,4e4dbec9bd41b76bef9272bc,40.70200830304049,-74.01320281198944,3,3,3,0,10021
533,Mediocre Pork Chop House,4f85d678e4b0388157fe64c9,40.706698468752876,-74.00959916242748,2,3,3,0,10005
534,Food Rite Express,4f32962319836c91c7e646db,40.707207,-74.007416,0,0,0,0,10038
535,A-Pou's Taste,4ecd241ae30072984c208baf,40.70287451551741,-74.01277244340157,17,25,25,1,10005
536,Moo Shu Grill,52090e45498e5500a6bd41fb,40.70677387391192,-74.0041992992451,320,461,384,13,11201
537,China Chalet - Broad St,4af07694f964a52057dc21e3,40.703771,-74.012112,25,56,56,1,10004
538,Wenger Chinese Restaurant,55f348b7498e60a6896b0144,40.707145,-74.013607,10,17,15,0,
539,A-Pou's Taste,4c6c085fd0869521def302ea,40.70276545604518,-74.0130593559012,114,241,238,9,10006
540,Su Xi,59947d0a5c683858536941c8,40.70834,-74.014155,0,0,0,0,10006
541,Tipsy Shanghai,57902901498eb57b8ea7b419,40.708323972702445,-74.01429481800531,206,239,193,5,10006
542,Studiofeast - We Love Pork & Whiskey,4fe8c060e4b098960a65e8e9,40.70508987115078,-74.01256012787448,12,12,12,0,10004
543,Yips Restaurant,4b3b9355f964a5202e7625e3,40.70495044677767,-74.01236009873962,686,1570,1125,20,10004
544,Chen's Buffet Bar,5851831bfad9dc11232fcb6f,40.706983,-74.008412,27,55,53,0,10005
545,No 1 Chinese Restaurant,4d421b1fc95b721e988d662b,40.70460891760118,-74.01042780561745,129,191,188,2,10004
546,Number One Chinese,4ce56fbd5bf68cfa65f23c17,40.704573575379875,-74.01040987598235,253,521,493,12,10004
547,China 59,4a982c7af964a520cc2a20e3,40.70917839380905,-74.00895826776383,332,465,381,9,10038
548,New Golden Chopsticks,4af31b7ef964a520b5ea21e3,40.703941419074944,-74.01050545706468,165,475,463,14,10004
549,Szechuan & Beyond,5841b0267220e63396cb6cea,40.708866,-74.00919,6,6,6,0,10005
550,Oriental Express,4bb2195af964a520aeb83ce3,40.70744302132325,-74.00846870421927,260,853,763,5,10005
551,Zen Palate John Street,4f3296ff19836c91c7e69941,40.707833,-74.005993,1,1,1,0,10038
552,Win Won Restaurant,4b88199af964a520e6df31e3,40.709122,-74.009021,12,22,22,0,10038
553,Mediocre Pork Chop House,4f85d678e4b0388157fe64c9,40.706698468752876,-74.00959916242748,2,3,3,0,10005
554,Food Rite Express,4f32962319836c91c7e646db,40.707207,-74.007416,0,0,0,0,10038
555,China Chalet - Broad St,4af07694f964a52057dc21e3,40.703771,-74.012112,25,56,56,1,10004
556,Ho Yip,4a941a63f964a520672020e3,40.709628508810056,-74.01184259657889,1908,4906,3397,35,10006
557,China Chalet,4a3db1e9f964a5209ba21fe3,40.70663840849561,-74.01264754403648,1871,2618,2095,36,10006
558,Jiangnan Chinese Cuisine,591d9063eacf4550665e3f18,40.70823051511181,-74.01391625404358,10,12,12,0,10006
559,Su Hang Restaurant,575808cf38fa9ce070c7ce1b,40.70836877416477,-74.01407718658447,2,2,2,0,10006
560,Budtharasa Thai Food,4b3bebdff964a5206a7e25e3,40.70885961986275,-74.01387471996154,142,547,531,5,10006
561,Wenger Chinese Restaurant,55f348b7498e60a6896b0144,40.707145,-74.013607,10,17,15,0,
562,Su Xi,59947d0a5c683858536941c8,40.70834,-74.014155,0,0,0,0,10006
563,Tipsy Shanghai,57902901498eb57b8ea7b419,40.708323972702445,-74.01429481800531,206,239,193,5,10006
564,Golden Unicorn Restaurant 麒麟金閣,3fd66200f964a520ece31ee3,40.713628504646834,-73.99723023176193,18689,31475,20498,213,10002
565,Shanghai Asian Manor,4bcf9774a8b3a5939497625f,40.714423425836316,-73.99890393018723,9816,16096,11051,216,10013
566,Noodle Village 粥麵軒,49d3deadf964a5201d5c1fe3,40.71412788438359,-73.99874558609585,4909,9271,6993,106,10013
567,Tasty Hand-Pulled Noodles 清味蘭州拉麵,4a7655b0f964a520dce21fe3,40.7142079238429,-73.99784713983536,6775,11222,8907,155,10013
568,Dim Sum Go Go,3fd66200f964a520fbe31ee3,40.71360309794179,-73.99797072478428,7905,11658,8172,129,10038
569,Wo Hop Restaurant,3fd66200f964a52037e31ee3,40.71426891504387,-73.99888783693314,10308,17429,15098,259,10013
570,Taiwan Pork Chop House 臺灣武昌好味道,49f61fe9f964a520046c1fe3,40.71436751328666,-73.99786861896594,3125,6430,5370,70,10013
571,Coco Fresh Tea & Juice,524f436611d257e5c4b67258,40.71425355815671,-73.99391622144877,2020,2840,745,4,10002
572,Chinese Tuxedo,582543c1b39f9613c18d8e2f,40.714430163948634,-73.99798364729664,818,930,799,25,10013
573,Kings Kitchen 金煌煲煲好,547622dd498eaea3be8a559f,40.71385235014096,-73.99364012973133,1571,2847,910,10,10002
574,Ping's Seafood,3fd66200f964a5206ce91ee3,40.71442446543967,-73.99883201776339,5005,8512,7343,76,10013
575,Fish Market,4a1d6741f964a520727b1fe3,40.70704985925295,-74.00180780098188,2787,4967,3416,57,10038
576,Buddha Bodai 佛菩提素菜,459b830af964a5208b401fe3,40.71379837914967,-73.99867652064822,3984,6217,4789,110,10013
577,M Star Cafe 明星茶餐廳,4aedda39f964a52089cf21e3,40.71420007029447,-73.99659362522682,1676,5332,3477,37,10002
578,88 Palace,4a479af0f964a520dda91fe3,40.71391929696622,-73.99427629912611,5912,8745,3759,36,10002
579,Chatham Seafood Restaurant,49c68407f964a52052571fe3,40.71388466954485,-73.99826556444168,1793,3626,3057,16,10038
580,Lee Chung Cafe,4c2659d9905a0f4792246360,40.71215548630288,-73.99642247652706,624,1674,718,5,10002
581,Hop Shing Restaurant 合誠茶樓,4b38c437f964a520245025e3,40.713932,-73.99793,2788,5934,4554,50,10038
582,Sun Hing Lung Ho Fun Tofu,4afff2b4f964a520583a22e3,40.71296798032269,-73.99514878725047,960,2126,800,22,10002
583,Lan Zhou Ramen 107,58389efb8f0be46bca889667,40.713781,-73.992902,100,117,74,2,10002
584,Hwa Yuan,59d828f0916bc1155fde2c04,40.713615,-73.996044,20,20,18,2,10002
585,21 Shanghai House,540e547e498e51456fa10db9,40.714226309775924,-73.99643590812693,825,1200,821,13,10002
586,Dumplings,4ae775c8f964a52087ab21e3,40.71281655532767,-73.99664892691227,318,561,271,6,10002
587,Sunshine Seafood Restaurant,574067e0498e1f6331988411,40.714362434776874,-73.99268388748169,100,130,109,0,10002
588,C Bao,57bf1d29498e692c4d8c41d9,40.71376782026005,-73.99932125199392,373,514,152,6,10013
589,Xing Wong BBQ Inc. 興旺燒臘飯店,52bf79c7498eb557d3c93207,40.71385804552789,-73.9937450323474,242,535,421,5,10002
590,Han Palace,507c5826e4b076bc1928c141,40.71358029976897,-73.9961274446152,710,1002,353,4,10002
591,J.J. Noodle Restaurant 好旺角,4fc6b859e4b01d7243896110,40.71285779712717,-73.9971330515272,301,546,226,4,10002
592,Mei Yu Spring Restaurant,511d6951e4b0b10a3986bb7a,40.71246460866779,-73.99712897983653,246,592,244,5,10038
593,Happy Garden Palace,4d9ce7185c33a35df465f5a0,40.71373327747963,-73.9955109956084,146,191,83,2,10002
594,Shui Mei Cafe,4f52a0d5e4b0bf6b5d63071d,40.713682115591304,-73.9948510357043,138,189,95,4,10002
595,New Wong Restaurant,4cba18bf035d236a3b46d84e,40.71388902330584,-73.99324564077698,410,710,443,6,10002
596,Hop Lee Restaurant,4a00def5f964a520b9701fe3,40.71419619092751,-73.99875753592946,1204,2004,1904,16,10013
597,Wo Hop City Inc,561c468c498ef927dec6c82a,40.714174381728654,-73.99880396765374,85,163,157,0,10013
598,Chen's Buffet Bar,5851831bfad9dc11232fcb6f,40.706983,-74.008412,27,55,53,0,10005
599,Asian Wok,500362c7e4b0c432cf7fd8be,40.70929560679293,-74.00575138465338,102,161,158,2,10038
600,Food Sing 88 Corp.,4a677f76f964a52090c91fe3,40.71356853427718,-73.99783409962185,143,401,393,15,10038
601,No 1 Chinese Restaurant,4d421b1fc95b721e988d662b,40.70460891760118,-74.01042780561745,129,191,188,2,10004
602,Manna House Bakery,4beedf312c082d7f78053142,40.713921472970185,-73.99379005898597,180,419,397,1,10002
603,Jing Star Restaurant,4ad0ad52f964a52005d920e3,40.71424399279327,-73.9962385533701,449,756,636,3,10002
604,Number One Chinese,4ce56fbd5bf68cfa65f23c17,40.704573575379875,-74.01040987598235,253,521,493,12,10004
605,Northern Tiger,53fa4bba498e47b1dc5f8e2b,40.71259782426141,-74.0160250108206,802,1544,1387,23,10080
606,Ningbo Cafe,5742850f498e0114292c6a52,40.70794582988142,-74.01832186970051,336,429,146,2,10280
607,Jiangnan Chinese Cuisine,591d9063eacf4550665e3f18,40.70823051511181,-74.01391625404358,10,12,12,0,10006
608,Su Hang Restaurant,575808cf38fa9ce070c7ce1b,40.70836877416477,-74.01407718658447,2,2,2,0,10006
609,Budtharasa Thai Food,4b3bebdff964a5206a7e25e3,40.70885961986275,-74.01387471996154,142,547,531,5,10006
610,Su Xi,59947d0a5c683858536941c8,40.70834,-74.014155,0,0,0,0,10006
611,Tipsy Shanghai,57902901498eb57b8ea7b419,40.708323972702445,-74.01429481800531,206,239,193,5,10006
612,Jing Fong Restaurant 金豐大酒樓,3fd66200f964a520d5e31ee3,40.715806532202514,-73.99704898030589,23842,40382,28236,275,10013
613,Shanghai Café Deluxe,46936ee3f964a520d0481fe3,40.71733412016059,-73.9974851229737,17375,33191,23262,340,10013
614,Golden Unicorn Restaurant 麒麟金閣,3fd66200f964a520ece31ee3,40.713628504646834,-73.99723023176193,18689,31475,20498,213,10002
615,Great N.Y. Noodletown,3fd66200f964a520b1ea1ee3,40.7150640924547,-73.99688829591487,11921,23237,15885,268,10013
616,Xi'an Famous Foods,56ccead2498e8cad8d3cedff,40.72105252664767,-73.99606868201784,2475,4549,2264,36,10012
617,Vanessa's Dumpling House,49eeaf08f964a52078681fe3,40.718301364039064,-73.99192996850243,15816,31095,25109,374,10002
618,Congee Village 粥之家,425f0400f964a52011211fe3,40.718746162264694,-73.990512460134,14487,24908,19374,205,10002
619,Spicy Village 大福星 (Spicy Village),4db3374590a0843f295fb69b,40.717182473933846,-73.99391023674033,4961,8797,5459,149,10002
620,Mission Chinese Food,4fa89bb2e4b0bad89524b84a,40.71406967691378,-73.98980855941772,12573,19170,15116,375,10002
621,Nom Wah Nolita,57dd91ce498e08473d3cc30c,40.72042694023345,-73.99433031755756,1912,2543,1279,31,10012
622,Lan Zhou Handmade Noodle & Dumpling,59e7bfa8356b4970aea1be3f,40.715538,-73.996738,60,69,69,1,10013
623,Wah Fung Number 1 Fast Food 華豐快飯店,4a96bf8ff964a520ce2620e3,40.71727831655619,-73.99417731304892,2679,4601,2674,75,10002
624,Joy Luck Palace,569d47a0498eeb7fbd002030,40.7171301715229,-73.99750772882881,2455,3567,2004,34,10013
625,Xi'an Famous Foods,5894c9a15e56b417cf79e553,40.71526003880638,-73.99724173202145,830,1080,566,8,10013
626,Wu's Wonton King,56a96c6f498e5f93f0a505fd,40.71399163703321,-73.99016885345091,1159,1767,687,6,10002
627,Shu Jiao Fu Zhou Cuisine 潭頭王福州小吃,4b391426f964a520ae5525e3,40.718432,-73.991701,2431,4492,2543,72,10002
628,Mimi Cheng's,56ddc1f8cd1028ec415bf35a,40.720468,-73.996443,894,1189,810,19,10013
629,Oriental Garden 福臨門海鮮酒家,3fd66200f964a5209fe61ee3,40.71589091885152,-73.99733645578446,5003,8352,6960,84,10013
630,Coco Fresh Tea & Juice,524f436611d257e5c4b67258,40.71425355815671,-73.99391622144877,2020,2840,745,4,10002
631,Kings Kitchen 金煌煲煲好,547622dd498eaea3be8a559f,40.71385235014096,-73.99364012973133,1571,2847,910,10,10002
632,XO Taste,4e8741b1b63493832df29d65,40.71683793455089,-73.99684926252124,2328,4443,2587,21,10013
633,Nom Wah Tu,59bdbf214c9be611fb5eae24,40.715336,-73.991384,89,117,95,1,10002
634,funny bbq 聚点,5606c755498ec78f89449528,40.71760018030402,-73.99527315155541,473,568,321,3,10013
635,M Star Cafe 明星茶餐廳,4aedda39f964a52089cf21e3,40.71420007029447,-73.99659362522682,1676,5332,3477,37,10002
636,Teado,4b2ebc57f964a520e3e524e3,40.71718422928588,-73.9948832988739,2656,5218,3473,55,10002
637,88 Palace,4a479af0f964a520dda91fe3,40.71391929696622,-73.99427629912611,5912,8745,3759,36,10002
638,North Dumpling,4aca9125f964a52060c220e3,40.71577434202553,-73.98962409427033,2425,4917,2955,67,10002
639,Upstairs Bar,4b77bb42f964a5208ea82ee3,40.714957252575246,-73.99211379858167,1883,2649,1574,16,10002
640,XO Kitchen,49f50c47f964a520896b1fe3,40.71748184806784,-73.99604732552757,2864,5477,4814,63,10013
641,Golden Dragon Boat Cafe & Bakery,4b9580fff964a52045a634e3,40.717773499495344,-73.99516895214416,327,1022,883,9,10002
642,Royal Seafood Restaurant,4bdd7814b0f5c928c4684ce3,40.717304649702356,-73.99749740784958,2681,5446,4883,35,10013
643,S.Wan Cafe 洋紫荊咖啡室,4d1f817c16cfb60cb1bd5161,40.717268814690726,-73.99241216248508,581,1941,1274,18,10002
644,Lee Chung Cafe,4c2659d9905a0f4792246360,40.71215548630288,-73.99642247652706,624,1674,718,5,10002
645,Sun Hing Lung Ho Fun Tofu,4afff2b4f964a520583a22e3,40.71296798032269,-73.99514878725047,960,2126,800,22,10002
646,Sing Kee Seafood Restaurant,4ebdba4e29c25ce5a107be6c,40.71555651302397,-73.99662510567661,992,1816,1606,12,10013
647,Ming Kee Kitchen Inc,5888cfef297c166c81a8a04b,40.718488,-73.994585,70,199,109,0,10002
648,Shanghai Asian Cuisine • 上海小館,4abac118f964a520cb8220e3,40.715917808734794,-73.9973114386594,2087,3612,3299,42,10013
649,Grand Bo Ky Restaurant 波記潮州小食,4ae5afa0f964a52076a121e3,40.71889236768727,-73.99602943843124,1463,2711,2139,29,10013
650,Kwong Wah Cake Co.,4b61e290f964a52014292ae3,40.71894988519868,-73.99624935949076,715,1977,1381,7,10013
651,The Bao Shoppe,585eca8b3e88355679a33afc,40.71447773433805,-73.99054724921032,354,479,260,3,10002
652,218 Restaurant,4bfdcd3ae529c928a589bb8c,40.71883283355385,-73.99589513199142,841,1634,1062,13,10013
653,Hwa Yuan,59d828f0916bc1155fde2c04,40.713615,-73.996044,20,20,18,2,10002
654,Shanghai Heping Restaurant,4f19bd72e4b0808f629111d1,40.71743807449281,-73.9973472579553,1802,3222,2794,34,10013
655,Happy Cafe,4bc34a294cdfc9b6a01a9721,40.714694991263045,-73.99267202150516,458,1147,765,3,10002
656,Lan Zhou Ramen 107,58389efb8f0be46bca889667,40.713781,-73.992902,100,117,74,2,10002
657,21 Shanghai House,540e547e498e51456fa10db9,40.714226309775924,-73.99643590812693,825,1200,821,13,10002
658,Dumplings,4ae775c8f964a52087ab21e3,40.71281655532767,-73.99664892691227,318,561,271,6,10002
659,Sunshine Seafood Restaurant,574067e0498e1f6331988411,40.714362434776874,-73.99268388748169,100,130,109,0,10002
660,Cafe Hong Kong 粵江春,5186eeb0498e1d856d27ba04,40.71541687652715,-73.99749410236164,853,1694,1495,26,10013
661,Xing Wong BBQ Inc. 興旺燒臘飯店,52bf79c7498eb557d3c93207,40.71385804552789,-73.9937450323474,242,535,421,5,10002
662,Tim Ho Wan 添好運,582e1f3103cf25316689c7d7,40.73120686163912,-73.99032139968189,4442,5781,3442,84,10003
663,Han Dynasty,52169fba11d21db81bdab2a0,40.732213,-73.988072,13545,24665,13942,321,10003
664,Málà Project,5647ee82498e8bfc0ddef53d,40.72719350778614,-73.98556749114132,3268,4975,2678,66,10009
665,The Bao,53dbd417498effcb4023b8ce,40.72923970030341,-73.98915491007054,8704,13509,7664,191,10003
666,Mimi Cheng's,53849e69498e22b2a6909f05,40.73079858529529,-73.98603978082964,5482,8181,4633,130,10003
667,Little Tong Noodle Shop,58d176db0b56560b9cad4cef,40.72942655338459,-73.98411110731779,994,1188,529,21,10003
668,Xi'an Famous Foods,4c2a81398abca59393c8fe1f,40.72773096258811,-73.98565153208304,12788,25691,19622,308,10003
669,Yuan Restaurant,5966b935b6eedb34a9117319,40.72964814442667,-73.98697917767726,323,359,210,7,10003
670,Sammy's Noodle Shop,3fd66200f964a520f2e91ee3,40.73517747101567,-73.99849891662598,5841,9639,6312,112,10011
671,The Tang,57559822498e34c6ad400961,40.727112712768644,-73.9855970747935,1084,1471,964,23,10009
672,Baohaus,4e32d529483bf02b1f8dc50f,40.732606089271286,-73.98557692419998,13983,22195,17027,282,10003
673,Carma East,57fd6f4c38fac31645a0b272,40.725277157179605,-73.98352594525758,484,577,296,6,10009
674,Legend Bar & Restaurant 蜀留香,4cf70d59dc40a35d63a04b54,40.7395893079078,-73.99903119143728,5781,9583,5868,96,10011
675,Hot Kitchen,4e7fc0019adffe8cdf3b2198,40.727531115312566,-73.98843694098862,3963,6571,5570,93,10003
676,Auntie Guan's Kitchen,56e310cf498e64591a7da177,40.73763278617108,-73.99740657080172,659,926,594,9,10011
677,Shu Han Ju Chinese Restaurant,540b96a9498e77fa82499dad,40.73539885615483,-73.99829670654898,313,505,397,9,10011
678,Mr Bing,59d2ca40a2c00b1e9f6cd147,40.72701,-73.98365,34,40,40,2,10009
679,Home's Kitchen,45cf45c4f964a520a0421fe3,40.739651099530946,-73.98907002702562,1799,3727,2574,25,10010
680,The Cottage,4ace96a9f964a52055d120e3,40.735329925960684,-73.98799666258779,2622,4508,3879,44,10003
681,Hunan Bistro,56905a45498ed8487e5f4860,40.732298185995525,-73.98796240437326,364,514,462,5,10003
682,Mee Noodle Shop,52bf5251498e37ca4d734227,40.730883810218835,-73.98293353048413,753,1488,987,16,10003
683,Lotus Blue,59b80f8125fb7b648e26cdda,40.735997,-73.991922,19,19,19,1,10003
684,Szechuan Mountain House 川山甲,59e929c3d48ec136ca2a3650,40.728934,-73.988963,10,10,10,1,10003
685,No. 1 Kitchen,4bf471d3e5eba5930bb01f90,40.73232924599403,-73.98178795342473,134,343,338,4,10003
686,Hot Pot Central,57e1c7eb498eea6013b0e451,40.73100282032225,-73.98593533186174,159,184,171,5,10003
687,AUNTIE GUAN'S KITCHEN,5602cb59498eda13a4d6d1a3,40.73843065649325,-73.98215570377323,140,213,206,4,10010
688,Han Dynasty,52169fba11d21db81bdab2a0,40.732213,-73.988072,13545,24665,13942,321,10003
689,Málà Project,5647ee82498e8bfc0ddef53d,40.72719350778614,-73.98556749114132,3268,4975,2678,66,10009
690,Mimi Cheng's,53849e69498e22b2a6909f05,40.73079858529529,-73.98603978082964,5482,8181,4633,130,10003
691,Little Tong Noodle Shop,58d176db0b56560b9cad4cef,40.72942655338459,-73.98411110731779,994,1188,529,21,10003
692,Xi'an Famous Foods,4c2a81398abca59393c8fe1f,40.72773096258811,-73.98565153208304,12788,25691,19622,308,10003
693,Yuan Restaurant,5966b935b6eedb34a9117319,40.72964814442667,-73.98697917767726,323,359,210,7,10003
694,The Tang,57559822498e34c6ad400961,40.727112712768644,-73.9855970747935,1084,1471,964,23,10009
695,Baohaus,4e32d529483bf02b1f8dc50f,40.732606089271286,-73.98557692419998,13983,22195,17027,282,10003
696,Carma East,57fd6f4c38fac31645a0b272,40.725277157179605,-73.98352594525758,484,577,296,6,10009
697,Hot Kitchen,4e7fc0019adffe8cdf3b2198,40.727531115312566,-73.98843694098862,3963,6571,5570,93,10003
698,Mr Bing,59d2ca40a2c00b1e9f6cd147,40.72701,-73.98365,34,40,40,2,10009
699,Hunan Bistro,56905a45498ed8487e5f4860,40.732298185995525,-73.98796240437326,364,514,462,5,10003
700,Mee Noodle Shop,52bf5251498e37ca4d734227,40.730883810218835,-73.98293353048413,753,1488,987,16,10003
701,No. 1 Kitchen,4bf471d3e5eba5930bb01f90,40.73232924599403,-73.98178795342473,134,343,338,4,10003
702,Hot Pot Central,57e1c7eb498eea6013b0e451,40.73100282032225,-73.98593533186174,159,184,171,5,10003
703,Happy Wok,4c804cc374d7b60c48a96cd8,40.72623180215731,-73.97710341181732,97,213,198,3,10009
704,China Wok,4a394cf4f964a520549f1fe3,40.722663198415994,-73.98299717467764,200,471,469,5,10009
705,Fei Ma,4a70e174f964a520acd81fe3,40.72507258413452,-73.98425632965225,160,471,462,2,10009
706,China Wok Inc.,4dcd7d4de4cd130e164f26e7,40.72202561,-73.97717649,26,91,87,1,10009
707,New Double Dragon,4b7c81b0f964a5208f972fe3,40.72407116944169,-73.9877926094403,135,246,243,4,10003
708,Red House,4b14124ff964a520cd9c23e3,40.733105738289616,-73.98681800725569,274,552,531,9,10003
709,China Town Restaurant,4bb15916f964a520ed8d3ce3,40.72162712566822,-73.9843887592994,97,129,129,2,10002
710,Clay Pot,58712f5a16f00013113d428f,40.7281401155435,-73.98696756376012,0,0,0,2,10003
711,336 East粥粉麵,57b8de9f498e486944e25d85,40.73421817106005,-73.98140788078308,0,0,0,0,10003
712,98 Flavor Taste,59752b56029a55583a226f8d,40.728827,-73.988109,5,5,5,0,10003
713,Yummy House,4a6f32aff964a52094d51fe3,40.73164662,-73.98830911,156,226,226,10,10003
714,Pho Love,57fff0dd38fa20b181502906,40.730380832918506,-73.98611783981323,0,0,0,0,10003
715,Ny Noodle Town,4da879fd43a12d0c26527981,40.7347322559436,-73.98612213498515,26,28,28,0,
716,Baron's Dim Sum,58fb77b6f62f2b14a7f0c409,40.725025,-73.98312,9,9,9,0,10009
717,Asian Express,4e1204ff62e1d997a6a4b647,40.732304683880216,-73.98798952195648,173,270,265,5,10003
718,Beijing,517950c8498e1eea6208430a,40.732935780916534,-73.98635169695791,33,60,59,1,10003
719,故乡味,51f0545d498e4142928cb694,40.729144,-73.988629,1,1,1,0,10003
720,Tasty King,4a8b0b52f964a520460b20e3,40.72980838806617,-73.97865690592889,146,451,435,2,10009
721,China Moon,4f44a10c19836ed001956457,40.722786,-73.982878,0,0,0,0,10009
722,Bar Bao,4d8293fd5ad3a093e604aafd,40.72694724260043,-73.98378632631129,29,30,30,1,10009
723,New Chinatown Restaurant,4c8910ff944e224b36782185,40.7245945452098,-73.97536110975435,14,32,32,1,10009
724,Plump Dumpling,4a5aa25cf964a520aeba1fe3,40.73038033289376,-73.9863286874492,1386,1924,1904,38,10003
725,China Star,4b720ca7f964a5201d6c2de3,40.72811939946421,-73.9850024584524,151,520,520,5,10003
726,Orchid Garden,4e4c44b4bd413c4cc66819a3,40.732061,-73.981987,1,1,1,0,10003
727,Chen's Express Kitchen,5873a0ef9c439d43ab832155,40.73308000062968,-73.98610711097716,0,0,0,0,10003
728,Fu Hao Kitchen,4e4c4d8ebd413c4cc6685a97,40.719757,-73.988518,2,2,2,0,10002
729,China1 Lounge,4c957d2472dd224bc78ba491,40.723287002126895,-73.98229988782118,9,10,10,1,10009
730,A & C Kitchen,4a397a94f964a5207f9f1fe3,40.72506,-73.978004,101,246,244,4,10009
731,Yummy Chinese,56528584498e5b9501779712,40.72406582841161,-73.97612444499029,7,8,8,0,10002
732,New Chinatown,4df94ecfd22d964c6b99bfd9,40.72040541827817,-73.97833073458874,39,118,117,2,10009
733,Sushumai Asian Fusion,59b3605ff00a705ba43f4027,40.721129,-73.987353,0,0,0,0,10002
734,Number One Chinese,4102f800f964a5206a0b1fe3,40.72427999449375,-73.9825753676373,33,36,36,0,10009
735,Zai Lai Chinese Grille,534c0415498e10b97096b590,40.729289,-73.985354,35,38,37,1,10003
736,Mr. Chow,3fd66200f964a520adea1ee3,40.758702868596544,-73.96455191801327,3491,4526,2718,56,10022
737,Land Of Plenty,4f208436e4b0e2de56db2754,40.76069209825678,-73.9666620391526,1970,3903,3044,63,10022
738,Grand Sichuan Eastern,4a6baed1f964a52097cf1fe3,40.75825611142862,-73.96604429310779,1315,2237,1550,23,10022
739,Asian 59,50196a54e4b0a36603352454,40.76145926641857,-73.96620967105336,635,1344,879,9,10022
740,Wok Chi - Stir Fry Kitchen,57e959b8cd1065372b1b68ad,40.75913059262725,-73.96830700584523,171,279,183,4,10022
741,Lilli and Loo,4adcb02ff964a520c52e21e3,40.763811,-73.967072,2891,4871,3592,43,10065
742,China 1 Kitchen,4ce735548ef78cfac4e6919b,40.76310928611921,-73.94885272410139,337,723,330,3,10044
743,Cafe Evergreen,50a6d6dae4b0b5b54c700593,40.768816456182456,-73.95533578111339,572,1082,888,15,10021
744,Tri Dim Shanghai,5858668cfc5a5f705fd3415e,40.77391593359783,-73.95784467458724,89,122,100,2,10075
745,Panda Express,56759406498ecd2d68a85eec,40.76566581236336,-73.95745129061507,335,616,421,0,10065
746,Charley Mom,4b53bfb3f964a5202daa27e3,40.77415432548356,-73.9484857648048,148,422,409,8,10028
747,China Taste,4ef380cf29c24e3535a0eeef,40.77496698321033,-73.95395982998126,133,438,430,2,10021
748,Tang's Garden,4b116540f964a5209f7b23e3,40.772215,-73.958981,445,732,601,24,10021
749,Shanghai,4ea5be4af5b9efc002cccdea,40.768386482733455,-73.95866887202992,229,554,460,8,10021
750,Hunan Delight Matsuya,4abd4a24f964a520798920e3,40.77074152218638,-73.95096951638398,404,902,844,20,10075
751,Ji Li Asian Food Inc,4ff5ca5de4b055f8967dc3ed,40.76380639025167,-73.95898863519923,44,229,218,3,10065
752,Our Place,4d0578c60e49721e6789767f,40.77353747432774,-73.95559287743944,293,486,467,12,10075
753,Go Noodle,4b525e58f964a520c37927e3,40.75925199817927,-73.96230527336756,130,358,357,4,10022
754,Six Happiness,4aaae96ff964a520025820e3,40.76995048426611,-73.95746483353656,165,382,381,8,10016
755,Lin's Gourmet,4b849883f964a5207f3d31e3,40.75982297396671,-73.96493729874526,170,514,483,5,10022
756,New Wong Asian Food,58c6bc42d32b4460baf4d9fa,40.763771,-73.958837,8,9,9,0,10065
757,Szechuan Gourmet,50318dc4e4b0e2ee610033e1,40.76928547149823,-73.95808423122013,286,395,355,4,10021
758,Jing Du Restaurant,4e4c4edebd413c4cc668638d,40.75897,-73.965538,0,0,0,0,10022
759,Beijing Wok,4ba10d69f964a520db9237e3,40.76745570609654,-73.95942009820281,174,333,320,5,10021
760,Tang Tang Noodle and More,4f32294e19836c91c7bc340c,40.762805,-73.96567,1,1,1,0,10021
761,Szechuan Kitchen,3fd66200f964a52050e31ee3,40.772589,-73.952599,137,328,323,13,10075
762,La Chine,587cff1865e7c7514cb5eab1,40.761772210975394,-73.96532535552979,4,4,4,0,10022
763,Gourmet Wok,4e4cb69cbd413c4cc66b8eec,40.774135,-73.948433,0,0,0,0,10028
764,Willow's,51b28eb3498e15fcefc63093,40.77478927727368,-73.95341823322555,1,19,19,0,10028
765,Chinese Taigi Center,4f32536e19836c91c7ccb235,40.774658,-73.956243,0,0,0,0,10075
766,China Spice,4d24c470836f54812ce945f7,40.77439878698826,-73.94831041835758,135,245,241,1,10028
767,面粉局,4f851c1fe4b04578ff42d5d9,40.76254653930664,-73.96565246582031,0,0,0,0,10021
768,Wok'N Roll,4e4c3bb0bd413c4cc667d75e,40.76364333330696,-73.95832589422217,1,1,1,0,10012
769,Empire Wok,4be6f09e2457a5930d4fad15,40.77486778,-73.95394627,58,114,114,1,10028
770,Chen's Gourmet,4e4ce228bd413c4cc66cf014,40.759847,-73.964899,0,0,0,0,10022
771,Wong's Reataurant On 1st Ave,4a6e486af964a5206bd41fe3,40.763736885777924,-73.95898130251658,79,137,137,3,10065
772,Gourmet Land China Bistro,4e4e4b95bd4101d0d7a71167,40.770509897892175,-73.95364783418151,3,17,17,0,10028
773,Shanjhai,5116ea1ce4b066680df9337f,40.774137,-73.949082,2,2,2,0,10028
774,Szechuan Palace,4f32a20619836c91c7eabad2,40.769371,-73.958049,13,17,15,0,10021
775,China Chalet,575210f6498ee5a2f6db07e0,40.773361,-73.955793,10,10,10,0,10075
776,Wok 88,49d6a64cf964a520f45c1fe3,40.78026277911913,-73.95291982882567,786,1638,1430,35,10128
777,Pig Heaven,5465906e498e0cb221c063e1,40.77536804369943,-73.95647627763297,441,649,469,13,10028
778,Fresh Wok,4b23e42ff964a520395c24e3,40.780622693780906,-73.9466649481451,234,496,324,6,10128
779,Tri Dim Shanghai,5858668cfc5a5f705fd3415e,40.77391593359783,-73.95784467458724,89,122,100,2,10075
780,China Jade Szechuan Chili House,59d807c8d48ec15e78a017f9,40.777426,-73.952332,8,8,8,3,10028
781,Charley Mom,4b53bfb3f964a5202daa27e3,40.77415432548356,-73.9484857648048,148,422,409,8,10028
782,Chef Ho's,4aac3833f964a520f65c20e3,40.78003251121288,-73.95015725518603,828,1565,1456,18,10128
783,Wa Jeal Sichuan Chili House,4a875feef964a520200420e3,40.775500163892616,-73.95346104980521,1043,1655,1597,43,10028
784,China Taste,4ef380cf29c24e3535a0eeef,40.77496698321033,-73.95395982998126,133,438,430,2,10021
785,Tang's Garden,4b116540f964a5209f7b23e3,40.772215,-73.958981,445,732,601,24,10021
786,Hunan Delight Matsuya,4abd4a24f964a520798920e3,40.77074152218638,-73.95096951638398,404,902,844,20,10075
787,Our Place,4d0578c60e49721e6789767f,40.77353747432774,-73.95559287743944,293,486,467,12,10075
788,Guo's Garden,4b9acf67f964a520f5d735e3,40.77784500191865,-73.94870207486802,106,284,271,6,10128
789,Noodle Fun,536e6f06498eaee664b4938e,40.779794780733674,-73.94745425283135,50,78,72,7,10128
790,Asian 83,58c592db9398ab19f33b25ca,40.77612,-73.953094,4,4,4,0,10028
791,South China Seas,4f320c5719833175d60b5505,40.781386,-73.952122,0,0,0,0,10128
792,Mingy Rose,5849b9a7d25ded7db606af98,40.77957872421942,-73.9501279592514,0,0,0,0,10128
793,Szechuan Kitchen,3fd66200f964a52050e31ee3,40.772589,-73.952599,137,328,323,13,10075
794,Lam Chao,4f32a59719836c91c7ec12ed,40.780546,-73.946699,0,0,0,0,10128
795,East Garden,5689a501498eee44a6a7c1a4,40.777724,-73.948639,15,22,21,1,
796,Six Fortune,564fb64f498ec3b7a91687bd,40.776176478475854,-73.95293033028817,4,5,5,1,10028
797,Gourmet Wok,4e4cb69cbd413c4cc66b8eec,40.774135,-73.948433,0,0,0,0,10028
798,Willow's,51b28eb3498e15fcefc63093,40.77478927727368,-73.95341823322555,1,19,19,0,10028
799,Spice Noodle,539b4042e4b0595cc39db9d7,40.7797557101527,-73.9475346156764,14,17,17,1,10029
800,Chinese Taigi Center,4f32536e19836c91c7ccb235,40.774658,-73.956243,0,0,0,0,10075
801,China Spice,4d24c470836f54812ce945f7,40.77439878698826,-73.94831041835758,135,245,241,1,10028
802,Great Wall Chinese,4bce3bed29d4b7133c42a8dc,40.778249475961495,-73.9564317240562,23,33,33,2,10028
803,Empire Wok,4be6f09e2457a5930d4fad15,40.77486778,-73.95394627,58,114,114,1,10028
804,Gourmet Land China Bistro,4e4e4b95bd4101d0d7a71167,40.770509897892175,-73.95364783418151,3,17,17,0,10028
805,Shanjhai,5116ea1ce4b066680df9337f,40.774137,-73.949082,2,2,2,0,10028
806,Guang Ming,4b19e591f964a520e2e523e3,40.78037595130876,-73.94688500157233,68,196,195,5,10128
807,Sunny East,4abffad3f964a520559320e3,40.77801279127944,-73.9485988621324,137,333,321,7,10128
808,China Chalet,575210f6498ee5a2f6db07e0,40.773361,-73.955793,10,10,10,0,10075
809,China 1 Kitchen,4ce735548ef78cfac4e6919b,40.76310928611921,-73.94885272410139,337,723,330,3,10044
810,Cafe Evergreen,50a6d6dae4b0b5b54c700593,40.768816456182456,-73.95533578111339,572,1082,888,15,10021
811,Panda Express,56759406498ecd2d68a85eec,40.76566581236336,-73.95745129061507,335,616,421,0,10065
812,Tang's Garden,4b116540f964a5209f7b23e3,40.772215,-73.958981,445,732,601,24,10021
813,Shanghai,4ea5be4af5b9efc002cccdea,40.768386482733455,-73.95866887202992,229,554,460,8,10021
814,Hunan Delight Matsuya,4abd4a24f964a520798920e3,40.77074152218638,-73.95096951638398,404,902,844,20,10075
815,Ji Li Asian Food Inc,4ff5ca5de4b055f8967dc3ed,40.76380639025167,-73.95898863519923,44,229,218,3,10065
816,Friendly Restaurant,4e6a9faa483bf2d9e650da11,40.75592509703308,-73.94233966309967,42,107,98,1,11101
817,Six Happiness,4aaae96ff964a520025820e3,40.76995048426611,-73.95746483353656,165,382,381,8,10016
818,New Wong Asian Food,58c6bc42d32b4460baf4d9fa,40.763771,-73.958837,8,9,9,0,10065
819,Szechuan Gourmet,50318dc4e4b0e2ee610033e1,40.76928547149823,-73.95808423122013,286,395,355,4,10021
820,Beijing Wok,4ba10d69f964a520db9237e3,40.76745570609654,-73.95942009820281,174,333,320,5,10021
821,Cheng Chinese Restaurant,4c118ae9416620a1ce59d9e4,40.751138,-73.9406204,114,202,159,4,11101
822,Szechuan Kitchen,3fd66200f964a52050e31ee3,40.772589,-73.952599,137,328,323,13,10075
823,Wok'N Roll,4e4c3bb0bd413c4cc667d75e,40.76364333330696,-73.95832589422217,1,1,1,0,10012
824,Wong's Reataurant On 1st Ave,4a6e486af964a5206bd41fe3,40.763736885777924,-73.95898130251658,79,137,137,3,10065
825,Gourmet Land China Bistro,4e4e4b95bd4101d0d7a71167,40.770509897892175,-73.95364783418151,3,17,17,0,10028
826,Wongs Chinese Restaurant,4d44ef60befe236a8a96fae2,40.75588877599529,-73.94262668065925,64,141,119,1,11101
827,Szechuan Palace,4f32a20619836c91c7eabad2,40.769371,-73.958049,13,17,15,0,10021
828,Kung Fu Little Steamed Buns Ramen,55495032498e99526354bbd8,40.75929923102627,-73.96948608427324,1841,3179,1289,37,10022
829,Philippe,4a987360f964a520192c20e3,40.76407054729209,-73.9704792377402,4982,7623,6259,100,10022
830,Land Of Plenty,4f208436e4b0e2de56db2754,40.76069209825678,-73.9666620391526,1970,3903,3044,63,10022
831,Asian 59,50196a54e4b0a36603352454,40.76145926641857,-73.96620967105336,635,1344,879,9,10022
832,Lilli and Loo,4adcb02ff964a520c52e21e3,40.763811,-73.967072,2891,4871,3592,43,10065
833,Cafe Evergreen,50a6d6dae4b0b5b54c700593,40.768816456182456,-73.95533578111339,572,1082,888,15,10021
834,Lychee House,4ba991e0f964a520f22e3ae3,40.759284471065456,-73.96959177455228,753,1228,1086,16,10022
835,Panda Express,56759406498ecd2d68a85eec,40.76566581236336,-73.95745129061507,335,616,421,0,10065
836,Shanghai,4ea5be4af5b9efc002cccdea,40.768386482733455,-73.95866887202992,229,554,460,8,10021
837,Ji Li Asian Food Inc,4ff5ca5de4b055f8967dc3ed,40.76380639025167,-73.95898863519923,44,229,218,3,10065
838,Six Happiness,4aaae96ff964a520025820e3,40.76995048426611,-73.95746483353656,165,382,381,8,10016
839,Lin's Gourmet,4b849883f964a5207f3d31e3,40.75982297396671,-73.96493729874526,170,514,483,5,10022
840,New Wong Asian Food,58c6bc42d32b4460baf4d9fa,40.763771,-73.958837,8,9,9,0,10065
841,Szechuan Gourmet,50318dc4e4b0e2ee610033e1,40.76928547149823,-73.95808423122013,286,395,355,4,10021
842,Beijing Wok,4ba10d69f964a520db9237e3,40.76745570609654,-73.95942009820281,174,333,320,5,10021
843,Tang Tang Noodle and More,4f32294e19836c91c7bc340c,40.762805,-73.96567,1,1,1,0,10021
844,Shanghai Tea Garden,4ad0e5d5f964a520e5da20e3,40.759736005456354,-73.96969626419202,18,25,25,0,10022
845,La Chine,587cff1865e7c7514cb5eab1,40.761772210975394,-73.96532535552979,4,4,4,0,10022
846,面粉局,4f851c1fe4b04578ff42d5d9,40.76254653930664,-73.96565246582031,0,0,0,0,10021
847,Wok'N Roll,4e4c3bb0bd413c4cc667d75e,40.76364333330696,-73.95832589422217,1,1,1,0,10012
848,Chen's Gourmet,4e4ce228bd413c4cc66cf014,40.759847,-73.964899,0,0,0,0,10022
849,Wong's Reataurant On 1st Ave,4a6e486af964a5206bd41fe3,40.763736885777924,-73.95898130251658,79,137,137,3,10065
850,Gourmet Land China Bistro,4e4e4b95bd4101d0d7a71167,40.770509897892175,-73.95364783418151,3,17,17,0,10028
851,Szechuan Palace,4f32a20619836c91c7eabad2,40.769371,-73.958049,13,17,15,0,10021
852,Pig Heaven,5465906e498e0cb221c063e1,40.77536804369943,-73.95647627763297,441,649,469,13,10028
853,Tri Dim Shanghai,5858668cfc5a5f705fd3415e,40.77391593359783,-73.95784467458724,89,122,100,2,10075
854,China Jade Szechuan Chili House,59d807c8d48ec15e78a017f9,40.777426,-73.952332,8,8,8,3,10028
855,Charley Mom,4b53bfb3f964a5202daa27e3,40.77415432548356,-73.9484857648048,148,422,409,8,10028
856,Wa Jeal Sichuan Chili House,4a875feef964a520200420e3,40.775500163892616,-73.95346104980521,1043,1655,1597,43,10028
857,China Taste,4ef380cf29c24e3535a0eeef,40.77496698321033,-73.95395982998126,133,438,430,2,10021
858,Tang's Garden,4b116540f964a5209f7b23e3,40.772215,-73.958981,445,732,601,24,10021
859,Hunan Delight Matsuya,4abd4a24f964a520798920e3,40.77074152218638,-73.95096951638398,404,902,844,20,10075
860,Our Place,4d0578c60e49721e6789767f,40.77353747432774,-73.95559287743944,293,486,467,12,10075
861,Six Happiness,4aaae96ff964a520025820e3,40.76995048426611,-73.95746483353656,165,382,381,8,10016
862,Asian 83,58c592db9398ab19f33b25ca,40.77612,-73.953094,4,4,4,0,10028
863,Szechuan Kitchen,3fd66200f964a52050e31ee3,40.772589,-73.952599,137,328,323,13,10075
864,Six Fortune,564fb64f498ec3b7a91687bd,40.776176478475854,-73.95293033028817,4,5,5,1,10028
865,Gourmet Wok,4e4cb69cbd413c4cc66b8eec,40.774135,-73.948433,0,0,0,0,10028
866,Willow's,51b28eb3498e15fcefc63093,40.77478927727368,-73.95341823322555,1,19,19,0,10028
867,Chinese Taigi Center,4f32536e19836c91c7ccb235,40.774658,-73.956243,0,0,0,0,10075
868,China Spice,4d24c470836f54812ce945f7,40.77439878698826,-73.94831041835758,135,245,241,1,10028
869,Empire Wok,4be6f09e2457a5930d4fad15,40.77486778,-73.95394627,58,114,114,1,10028
870,Gourmet Land China Bistro,4e4e4b95bd4101d0d7a71167,40.770509897892175,-73.95364783418151,3,17,17,0,10028
871,Shanjhai,5116ea1ce4b066680df9337f,40.774137,-73.949082,2,2,2,0,10028
872,China Chalet,575210f6498ee5a2f6db07e0,40.773361,-73.955793,10,10,10,0,10075
873,Wok 88,49d6a64cf964a520f45c1fe3,40.78026277911913,-73.95291982882567,786,1638,1430,35,10128
874,Pig Heaven,5465906e498e0cb221c063e1,40.77536804369943,-73.95647627763297,441,649,469,13,10028
875,Fresh Wok,4b23e42ff964a520395c24e3,40.780622693780906,-73.9466649481451,234,496,324,6,10128
876,Tri Dim Shanghai,5858668cfc5a5f705fd3415e,40.77391593359783,-73.95784467458724,89,122,100,2,10075
877,China Jade Szechuan Chili House,59d807c8d48ec15e78a017f9,40.777426,-73.952332,8,8,8,3,10028
878,Charley Mom,4b53bfb3f964a5202daa27e3,40.77415432548356,-73.9484857648048,148,422,409,8,10028
879,Chef Ho's,4aac3833f964a520f65c20e3,40.78003251121288,-73.95015725518603,828,1565,1456,18,10128
880,Wa Jeal Sichuan Chili House,4a875feef964a520200420e3,40.775500163892616,-73.95346104980521,1043,1655,1597,43,10028
881,Chinatown East Restaurant,4b292040f964a520459924e3,40.78274531667897,-73.950934857016,1904,4217,3780,27,10128
882,China Taste,4ef380cf29c24e3535a0eeef,40.77496698321033,-73.95395982998126,133,438,430,2,10021
883,A-Jiao Sichuan Cuisine,52ed887d498ecc66ab2e02b0,40.78302391641758,-73.94798723979062,88,169,168,6,10128
884,Pic Up Stix,4e0d1f431f6e9964ea1669cb,40.782460779896354,-73.95339062640896,225,423,343,7,10128
885,Our Place,4d0578c60e49721e6789767f,40.77353747432774,-73.95559287743944,293,486,467,12,10075
886,Five Luck Restaurant,4c544d0e72cf0f47267553d4,40.78340048673886,-73.94779101118264,78,174,172,6,10128
887,Guo's Garden,4b9acf67f964a520f5d735e3,40.77784500191865,-73.94870207486802,106,284,271,6,10128
888,Noodle Fun,536e6f06498eaee664b4938e,40.779794780733674,-73.94745425283135,50,78,72,7,10128
889,Asian Gourmet,51217189e4b0227e25949a37,40.78764051091013,-73.95035303433103,46,73,67,2,10029
890,Asian 83,58c592db9398ab19f33b25ca,40.77612,-73.953094,4,4,4,0,10028
891,South China Seas,4f320c5719833175d60b5505,40.781386,-73.952122,0,0,0,0,10128
892,Mingy Rose,5849b9a7d25ded7db606af98,40.77957872421942,-73.9501279592514,0,0,0,0,10128
893,Lam Chao,4f32a59719836c91c7ec12ed,40.780546,-73.946699,0,0,0,0,10128
894,East Garden,5689a501498eee44a6a7c1a4,40.777724,-73.948639,15,22,21,1,
895,new good taste 2 chinese restaurant,4d5dc72cd439cbff805240ba,40.787815,-73.944644,3,6,4,0,10029
896,Six Fortune,564fb64f498ec3b7a91687bd,40.776176478475854,-73.95293033028817,4,5,5,1,10028
897,Chinese Mirch,4bef3bf7ea570f47501d8fd2,40.78317357392835,-73.94773006439209,17,21,21,2,10128
898,Grand Eastern,4af06300f964a52096db21e3,40.78678048929294,-73.95021782258036,66,135,135,4,10029
899,Gourmet Wok,4e4cb69cbd413c4cc66b8eec,40.774135,-73.948433,0,0,0,0,10028
900,Willow's,51b28eb3498e15fcefc63093,40.77478927727368,-73.95341823322555,1,19,19,0,10028
901,King Let Kitchen,4e4095b6b0fb1399f6e42d93,40.787148,-73.948141,2,4,4,0,
902,Spice Noodle,539b4042e4b0595cc39db9d7,40.7797557101527,-73.9475346156764,14,17,17,1,10029
903,Chinese Taigi Center,4f32536e19836c91c7ccb235,40.774658,-73.956243,0,0,0,0,10075
904,China Spice,4d24c470836f54812ce945f7,40.77439878698826,-73.94831041835758,135,245,241,1,10028
905,Great Wall Chinese,4bce3bed29d4b7133c42a8dc,40.778249475961495,-73.9564317240562,23,33,33,2,10028
906,Empire Wok,4be6f09e2457a5930d4fad15,40.77486778,-73.95394627,58,114,114,1,10028
907,China Moon,4e4e4e2abd4101d0d7a749fd,40.785463689780535,-73.94251187370708,2,3,3,0,10029
908,New Delicious Inc,4dab9063fa8cc76497507739,40.78773780084235,-73.94404454136345,45,137,118,3,
909,Shanjhai,5116ea1ce4b066680df9337f,40.774137,-73.949082,2,2,2,0,10028
910,Guang Ming,4b19e591f964a520e2e523e3,40.78037595130876,-73.94688500157233,68,196,195,5,10128
911,Sunny East,4abffad3f964a520559320e3,40.77801279127944,-73.9485988621324,137,333,321,7,10128
912,China Chalet,575210f6498ee5a2f6db07e0,40.773361,-73.955793,10,10,10,0,10075
913,RedFarm,5215797811d2f1217bb93475,40.78204527610433,-73.98087834722097,6307,9583,5284,111,10024
914,Jing Fong,5966aacf061b516b02e056b2,40.782676167590026,-73.97877621724349,255,296,202,3,10024
915,La Caridad 78,4a8dd484f964a520081120e3,40.78312111950729,-73.98096284557073,2448,4134,2461,29,10024
916,Shun Lee,4aa834b7f964a5200e5020e3,40.77270074253027,-73.98154231629059,3404,5055,4619,60,10023
917,La Salle Dumpling Room,5960214035d3fc3e620ea646,40.772954,-73.989335,52,90,58,0,10023
918,The Cottage,3fd66200f964a520a7ea1ee3,40.781890260325056,-73.9792663407642,1281,2495,2384,46,10024
919,Wok City,4aed1141f964a52001cd21e3,40.77523255727379,-73.98409665398943,249,1015,960,13,10023
920,La Dinastia,4af4c53cf964a52000f621e3,40.77817731218612,-73.98044169455747,659,1040,903,30,10023
921,Ocean Dragon Chinese,4b5f371cf964a520d3ad29e3,40.769351176581246,-73.98841359073752,247,793,762,4,10019
922,Legend,51883630498efd58e7a978bf,40.778027545216446,-73.97974465570476,445,673,564,9,10023
923,Grand Sichuan,49d94ca6f964a520205e1fe3,40.7801804761489,-73.98043464951085,2032,3837,3804,53,10023
924,Beijing Chinese Food,4b5748d8f964a520432f28e3,40.768756451798204,-73.98891865317907,145,614,611,7,10019
925,Empire Columbus,5182a2eb498e5965ff800f57,40.77525844076668,-73.98049778094963,39,46,45,1,10023
926,Mah Jong,557c79d2498e5325b3ee05fe,40.773119914352435,-73.98918102573148,17,49,44,0,10023
927,D And J's Sausage Factory,4c535e9ff5f3d13acee962f8,40.770099,-73.982064,14,65,65,4,10023
928,szechuan garden restaurant,4bc7cc058b7c9c74dd3d37cf,40.77435508162024,-73.98371745682837,5,5,5,1,10019
929,Chinafun,4fd3c9c6e4b01a8122ee3d98,40.777032,-73.979193,2,2,2,0,10023
930,House Of Song,55751a60498e9ea792fdc34a,40.772595,-73.9812,3,57,39,1,10023
931,B & J Kitchen,4b870d23f964a520aead31e3,40.76914462247363,-73.98772906303043,9,23,23,0,10019
932,Schizuan Restaurant,4d49f91f782f3704c4187337,40.779417,-73.978316,3,3,3,0,
933,"HKC,Tatsuya,Penang Bistro,Delika - Central Park",4bf366c2706e20a10e40a898,40.773144,-73.974687,1,1,1,0,10023
934,Seasons Thyme,4c365fdc3849c928d4f3bbb1,40.782929,-73.985817,2,2,2,0,10024
935,RedFarm,5215797811d2f1217bb93475,40.78204527610433,-73.98087834722097,6307,9583,5284,111,10024
936,Junzi Kitchen,57f5241d498e3b45c81d6194,40.80593913348885,-73.9654220954998,259,441,235,12,10025
937,Han Dynasty,5529bfd8498ec6ce692d8015,40.78761996790675,-73.97635945297974,2904,5052,2755,52,10024
938,Xi'an Famous Foods,529e3657498efb17e9c800b7,40.798353,-73.969378,4266,8318,3397,69,10025
939,108 Food- Dried Hot Pot,58fbdc8fe0755067a6dcf3ee,40.80295775350804,-73.96754895789924,207,331,183,8,10025
940,Jing Fong,5966aacf061b516b02e056b2,40.782676167590026,-73.97877621724349,255,296,202,3,10024
941,Flor De Mayo,3fd66200f964a5205fe81ee3,40.79781835926693,-73.96980449551504,3435,5598,3856,72,10025
942,La Caridad 78,4a8dd484f964a520081120e3,40.78312111950729,-73.98096284557073,2448,4134,2461,29,10024
943,Flor de Mayo,4a7a543df964a5202ee91fe3,40.785966049770074,-73.9763123251348,4072,6873,6260,86,10024
944,Pearls,4a038994f964a520c5711fe3,40.79581795808015,-73.96904646766076,1008,1792,1114,15,10025
945,Legend Upper West,50be3d38e4b0134f49e7c9be,40.80334988530988,-73.9668128819379,830,1383,674,10,10025
946,Ollie's Noodle Shop & Grille,56f9bde2498e2273715219c6,40.79937866374148,-73.96849305012344,179,289,222,6,10025
947,Szechuan Garden,531e069e498ec4f3e6b40327,40.80042325069722,-73.96780739712604,293,550,449,6,10025
948,Lava Kitchen,57dd6c3ccd102f97e9a29636,40.7975967,-73.96924009999998,78,108,78,4,10025
949,Happy Hot Hunan,5671c7b4498ea75bbb30376c,40.801619,-73.965102,93,130,108,2,10025
950,The Cottage,3fd66200f964a520a7ea1ee3,40.781890260325056,-73.9792663407642,1281,2495,2384,46,10024
951,New Kam Lai,4be0a4fb2aed2d7f230fc96f,40.78681937696887,-73.9755974674424,154,310,304,2,10024
952,Ollies to Go,4c42472acc410f476f97ac61,40.79044190607734,-73.9748217450227,703,1265,1062,21,10024
953,Junzi Kitchen,57f5241d498e3b45c81d6194,40.80593913348885,-73.9654220954998,259,441,235,12,10025
954,Xi'an Famous Foods,529e3657498efb17e9c800b7,40.798353,-73.969378,4266,8318,3397,69,10025
955,108 Food- Dried Hot Pot,58fbdc8fe0755067a6dcf3ee,40.80295775350804,-73.96754895789924,207,331,183,8,10025
956,Flor De Mayo,3fd66200f964a5205fe81ee3,40.79781835926693,-73.96980449551504,3435,5598,3856,72,10025
957,Pearls,4a038994f964a520c5711fe3,40.79581795808015,-73.96904646766076,1008,1792,1114,15,10025
958,Legend Upper West,50be3d38e4b0134f49e7c9be,40.80334988530988,-73.9668128819379,830,1383,674,10,10025
959,Ollie's Noodle Shop & Grille,56f9bde2498e2273715219c6,40.79937866374148,-73.96849305012344,179,289,222,6,10025
960,Szechuan Garden,531e069e498ec4f3e6b40327,40.80042325069722,-73.96780739712604,293,550,449,6,10025
961,Lava Kitchen,57dd6c3ccd102f97e9a29636,40.7975967,-73.96924009999998,78,108,78,4,10025
962,Happy Hot Hunan,5671c7b4498ea75bbb30376c,40.801619,-73.965102,93,130,108,2,10025
963,Szechuan Garden Kitchen,4e2f663de4cdb5a70d689bd8,40.802016524033924,-73.95723531366912,35,84,84,2,10026
964,Ollies to Go,4c42472acc410f476f97ac61,40.79044190607734,-73.9748217450227,703,1265,1062,21,10024
965,Healthy Corner Chinese Food Cart,5772bb62498e562ece7193c8,40.80814889720485,-73.96287182676899,5,7,7,0,10027
966,Zhong Hua,4beecb63e24d20a1685d7314,40.794858151973216,-73.9623545314355,34,282,281,1,10025
967,New Kam Lai,4c150499127f9521daf22425,40.7930148619515,-73.97105069259584,110,229,217,9,10025
968,Red Hot,59ac42570868a23a1e0fde8f,40.801466,-73.961428,6,6,6,0,10025
969,The Tuo Fast Food,59d6adb558002c2cb1917f02,40.808412,-73.963144,1,1,1,0,10027
970,Hunan Chen's Kitchen,517732ade4b01baf4729f059,40.801382601684686,-73.96141392572608,40,105,95,2,10025
971,La Nueva Victoria,4bb00d5af964a5202d343ce3,40.79394371318364,-73.97224475675158,359,580,482,8,10025
972,empire garden,5404df7b498eccd89627a700,40.798295,-73.963701,17,21,20,1,10025
973,Peking Kitchen,4d1522618312236a9f0950ba,40.80482333472266,-73.9551611375202,107,407,401,6,10026
974,Ma La Xiang Guo,590613293d47912d4bc2d3f4,40.802665,-73.967366,5,6,5,1,10025
975,Chinese,4e3b4332ae6045423648a9e5,40.79397567992397,-73.97227904120254,10,10,10,0,
976,New Asia Restaurant,4d5d4b54775f8cfa3563c0e0,40.79177603944643,-73.97201502558673,63,153,150,3,10025
977,Hwa Ying Chinese Restaurant,4f43e7c519836ed001912bf3,40.798417,-73.963407,0,0,0,0,10025
978,Benny's Lung Sheng Restaurant,4cf19117708060fca33af568,40.79810155608249,-73.96346301972062,14,68,66,1,10025
979,Rama chinese food,4ca9c9a444a8224bd9842440,40.800832,-73.965421,2,2,2,0,10025
980,Empire Sushi,4a09f288f964a52076741fe3,40.79732261651322,-73.96983975271246,291,453,432,10,10025
981,Jing Hua Chinese Restaurant,4f43f27219836ed001915c69,40.789052,-73.974029,7,8,8,0,10024
982,U Like Chinese Restaurant,4f325b1f19836c91c7cfb120,40.793087,-73.96736,12,13,13,1,10025
983,Imperial Feast,4c1503b1127f9521a9f22425,40.79226,-73.967961,1,1,1,0,10025
984,Concord Garden,4be1f4f5edbb0f471449a715,40.8023383729882,-73.96433838489506,90,204,188,3,10025
985,Golden Garden,4c043a7839d476b0e73931a7,40.799501831390494,-73.96260779826342,10,24,24,1,10025
986,U Like Chinese,4b885bd3f964a520dbf131e3,40.79855362787655,-73.96340347000421,60,135,134,2,10025
987,Wai Lee Restaurant,4b64ad20f964a520a0c72ae3,40.80075544977552,-73.96546483977176,51,164,164,3,10025
988,Kong Food,4ef28ace991151406cab838a,40.788785120161826,-73.97463794726357,1,1,1,0,10024
989,New Dragon,513fddbce4b028cabb15cfc7,40.804547,-73.955675,1,1,1,0,10026
990,Spice,4b6b1845f964a52073f22be3,40.78980755707059,-73.97332362117564,144,259,257,7,10024
991,New Kam Lai,4e4e6b6bbd4101d0d7a9c103,40.798748881645075,-73.96696039593138,65,133,129,3,10025
992,Hong Cheong,5086ca47e4b0bdc4ffafbf1a,40.80215835571289,-73.9602279663086,1,1,1,0,10027
993,The Handpulled Noodle,54e52c00498ed1a732aa2037,40.82850424461327,-73.94885138677587,1271,2173,1131,43,10031
994,New Home Sing,4f177ab5e4b01130e70c27cf,40.82049106946035,-73.95453012560915,67,264,193,0,10031
995,City One Chinese Restaurant,4dd5c9448877f1150fc23d52,40.82268804370475,-73.94210414664701,102,333,308,2,10030
996,King's Wok,4cd76fd7dfb4a1cd7195645c,40.827566104011005,-73.94976562795797,64,208,205,3,10031
997,New Golden Dragon,4a8b4bd9f964a520190c20e3,40.82422315102238,-73.94520000800988,254,588,394,3,10031
998,New Golden Empire,4b1f0394f964a520e22224e3,40.82606357103899,-73.94327792963422,136,482,421,10,10031
999,Silver Palace,4cccb7e372106dcb341f9e99,40.82305186223518,-73.9529783378995,41,217,175,4,10031
1000,Sum Hing,4c13ff18a9c220a113d3569d,40.8190221196401,-73.95205210189614,40,123,122,0,10031
1001,Good Taste,5105c175e4b09faec50ac3b0,40.82121613945048,-73.95449878767525,43,230,129,0,10031
1002,Fu On Kitchen,4d4c38fb64faba7a9975f28a,40.81931562023554,-73.94082675442002,31,134,130,1,10030
1003,Grand Great Wall,4b8c48fbf964a5208bc832e3,40.82122061569377,-73.9505802190639,246,734,560,4,10031
1004,Jing Hui,4b80962bf964a520f97e30e3,40.82476274101123,-73.94045340615348,122,287,204,9,10039
1005,Kim tint restaurant,4d68468e342b8cfa5bc9b72c,40.82539315966176,-73.94755183628169,7,15,15,0,10031
1006,Golden Wok,4c0b25636071a59342ece032,40.826960496307706,-73.94640130797958,137,370,309,4,10031
1007,King's Chef Chinese Restaurant,4e4e4d31bd4101d0d7a734a7,40.81849707740691,-73.93946372331968,18,78,78,0,10037
1008,Best Taste Chinese Restaurant,4c294e1597d00f472b4e41ea,40.82864292022108,-73.94837842353314,13,18,18,0,10031
1009,3640 Chinese Restaurant,56788c15498ee589d4eae3df,40.82822,-73.946976,4,4,1,0,
1010,Sing Luck Garden,4ba02a71f964a520df5e37e3,40.82424620216888,-73.95207302123835,44,175,161,4,10031
1011,New Fuon Kitchen,4e4e4d33bd4101d0d7a734c9,40.81940551096171,-73.94116288651622,3,3,3,0,10030
1012,Broadway 137th Street Chinese Restaurant,4ed95d47b8f7fcd03f05d701,40.821176756059025,-73.95408981525348,32,50,50,0,10031
1013,New Luck Garden,4b908f2cf964a520fd8f33e3,40.83275177152507,-73.94209588912703,247,495,124,2,10032
1014,Happy Family Chinese Restaurant,4e4cd50fbd413c4cc66c8579,40.831457,-73.947493,1,7,7,0,10031
1015,Ho Lee Restaurant,4b4e065ef964a520a5de26e3,40.82118687981364,-73.93943502111064,35,78,75,1,10030
1016,Great House Chinese Restaurant,4ceef9d54cd4236adf46b063,40.827613,-73.957903,1,1,1,0,11355
1017,Yong Sheng Restaurant,4e4e4d37bd4101d0d7a7354a,40.826361926456094,-73.93893560199236,14,23,19,1,10039
1018,Lucky Ho Lee,4c82d021dc018cfabe5bd36c,40.83295785,-73.945406,30,83,83,0,10032
1019,Red Star Restaurant,4dffd71dd22d5ec6f27691c1,40.822619975670015,-73.93870024311093,33,80,74,2,10039
1020,New Kim Tong,53692efd498e956e10bb12f4,40.825347900390625,-73.9474868774414,8,61,59,0,10031
1021,Yang Fan Restaurant,4cacb65944a8224b66ee3540,40.831183649844334,-73.9414499058546,19,58,58,0,10032
1022,Oriental Chinese,513c2ccfe4b0fce940606cfc,40.83377913878213,-73.94496698886483,50,195,145,2,10032
1023,Hong Garden,4e4e4d34bd4101d0d7a734ea,40.82234614341669,-73.93913077743322,40,98,85,2,10039
1024,New Happiness Chinese Food To Take Out,4b620f4ff964a5201e332ae3,40.82954071552846,-73.94813159576555,68,261,252,6,10031
1025,Empire Noodle House,4a726f62f964a52011db1fe3,40.84260363150912,-73.93960421909834,685,1464,980,11,10032
1026,Jade House,55b3da56498e35bfde50da0e,40.838601090683824,-73.93737419138682,44,91,11,0,10032
1027,Golden Star,4b8d55aef964a52050f532e3,40.84972502907437,-73.93625936786627,444,968,580,8,10033
1028,Jade Garden Chinese Restaurant,5270399211d218703bf55f83,40.84192289321093,-73.93925666872532,103,300,246,3,10032
1029,First Choice Chinese Restaurant,4be727362468c928ca290243,40.837714063687,-73.94224186826041,80,171,146,2,10032
1030,Silver Palace Chinese Restaurant,4e4cd2babd413c4cc66c7241,40.83600551281902,-73.94334179910396,251,543,210,2,10032
1031,new lucky star kitchen,52a010ba11d285144d71428f,40.840794510899705,-73.93629497376187,3,3,3,0,
1032,Splendid China Restaurant,4dcc827952b1648798ff17f5,40.83628406737483,-73.94007220915071,17,71,71,0,10032
1033,Panda Chinese Restaurant,4d6945906297721e3e8bc6b5,40.847148,-73.935322,1,1,1,0,10033
1034,Number 1 Chinese Food,515b3a43e4b0103638560c5b,40.836226,-73.943182,10,17,17,0,
1035,Fu Sing,4c13e658a5eb76b00dd0c0b7,40.84667758745689,-73.9383672959123,29,54,53,1,10033
1036,3849 Broadway No 1 Chinese,4f734896e4b053123fb09b0e,40.836518,-73.943531,4,6,6,0,10032
1037,China Sun,4c80650ed4e237043daf5488,40.84443167,-73.9371269,26,86,82,1,10033
1038,New Luck Garden,4b908f2cf964a520fd8f33e3,40.83275177152507,-73.94209588912703,247,495,124,2,10032
1039,Happy Family Chinese Restaurant,4e4cd50fbd413c4cc66c8579,40.831457,-73.947493,1,7,7,0,10031
1040,Number 1 Restaurant,4df2b248e4cda09e6da0bb9d,40.836345177964446,-73.94291943820092,17,47,47,2,10032
1041,King House,4ccc94697c2ff04df3429a7e,40.836651742758555,-73.94014109421869,37,107,100,1,10032
1042,Lucky Ho Lee,4c82d021dc018cfabe5bd36c,40.83295785,-73.945406,30,83,83,0,10032
1043,Silver Garden,4d54b659cc65a1439a9f455e,40.836226012488694,-73.94353939381375,10,35,33,1,10032
1044,Yang Fan Restaurant,4cacb65944a8224b66ee3540,40.831183649844334,-73.9414499058546,19,58,58,0,10032
1045,Oriental Chinese,513c2ccfe4b0fce940606cfc,40.83377913878213,-73.94496698886483,50,195,145,2,10032
1046,Jing Bin Seafood,51a0ef8a498efbc52aabc2a0,40.843483,-73.939291,0,0,0,0,10002
1047,Hua Yung Kitchen,4da4d9d9cda109f02fb1b51f,40.84583779428026,-73.93841896017027,32,60,60,0,10033
1048,Lucky Star Chinese Restaurant,4d8f6562c1b1721ea14b4546,40.84057,-73.93646,25,93,83,1,10032
1049,New Happiness Chinese Food To Take Out,4b620f4ff964a5201e332ae3,40.82954071552846,-73.94813159576555,68,261,252,6,10031
1050,Panda House,4c01bc9b716bc9b6e46bbc55,40.8604247218898,-73.92805485707328,240,893,518,6,10040
1051,Empire Chinese Restaurant,4c5a1c706407d13ac80bb428,40.855958906588945,-73.92887841181947,92,242,142,1,10040
1052,Golden Star,4b8d55aef964a52050f532e3,40.84972502907437,-73.93625936786627,444,968,580,8,10033
1053,Chop Chop,4babfacaf964a5203bdb3ae3,40.84999477426317,-73.92957273598162,247,684,567,9,10033
1054,Great Wall Chinese Restaurant,4aaed36bf964a520736320e3,40.85085901713292,-73.93834216873442,137,423,411,9,10033
1055,Yang Garden,4b292f38f964a520939a24e3,40.85530896752232,-73.93783226069496,70,302,291,2,10033
1056,No. 1 Chinese Restaurant,4b3fe94af964a520e2b125e3,40.85123671099152,-73.93960586750859,138,422,412,5,10033
1057,New Star,4e57f4d845dd1de4d98ea493,40.851682631863454,-73.93037639157042,9,68,68,0,10033
1058,China Wok,4c3b4e78e927b713345e5eb2,40.855397106286624,-73.93774158324958,4,6,6,0,10033
1059,Chan's Kitchen,4b26f208f964a520588324e3,40.85564698496216,-73.93291376900407,43,212,194,2,10040
1060,Silver Palace,4ba411c8f964a5202d7e38e3,40.84981135311256,-73.93353375663406,17,70,69,2,10033
1061,Panda Chinese Restaurant,4d6945906297721e3e8bc6b5,40.847148,-73.935322,1,1,1,0,10033
1062,Golden City Chinese Restaurant,4e4cd2b3bd413c4cc66c71fe,40.85197042533453,-73.92868287459251,23,75,73,2,10033
1063,Fu Sing,4c13e658a5eb76b00dd0c0b7,40.84667758745689,-73.9383672959123,29,54,53,1,10033
1064,China Sun,4c80650ed4e237043daf5488,40.84443167,-73.9371269,26,86,82,1,10033
1065,Fei Ming Chinese Restaurant,4f447a7719836ed00194659f,40.86038,-73.92768,3,3,3,0,10040
1066,HappyWorld,4f0a586de4b0e8907c8db257,40.85568223880528,-73.93418244527307,1,15,15,1,
1067,King Garden,4cd4b4b12944b1f707d658ec,40.8518857228541,-73.93484637393576,40,296,279,1,10033
1068,Golden Dragon,4bec7985b68520a17f2c1287,40.86144175649594,-73.92522116510834,35,91,74,3,10040
1069,New Peking,4e4cd273bd413c4cc66c6fc8,40.861066,-73.926199,1,1,1,0,10040
1070,No. 1 Restaurant,4bcc4cf4b6c49c7424709391,40.8575259112219,-73.93217977743787,130,480,402,7,10040
1071,Hang Lung,4c7eedaed860b60c77895f9d,40.85532649239897,-73.92934178518917,34,154,139,1,10040
1072,Jing Bin Seafood,51a0ef8a498efbc52aabc2a0,40.843483,-73.939291,0,0,0,0,10002
1073,New Star Chinese Food,4e4d8676d4c019a18a3ca538,40.857445070590735,-73.9273233411204,9,18,15,0,
1074,Hua Yung Kitchen,4da4d9d9cda109f02fb1b51f,40.84583779428026,-73.93841896017027,32,60,60,0,10033
1075,Golden City Kitchen,4f322d3219836c91c7bdb1af,40.851374,-73.928666,4,4,4,0,10033
1076,NO.1 Chinese Restaurant,4e78d316fa769112d5872477,40.85562919771903,-73.91399171283997,112,397,52,0,10453
1077,Panda House,4c01bc9b716bc9b6e46bbc55,40.8604247218898,-73.92805485707328,240,893,518,6,10040
1078,Empire Chinese Restaurant,4c5a1c706407d13ac80bb428,40.855958906588945,-73.92887841181947,92,242,142,1,10040
1079,Ten Tan Chinese Restaurant,4c866b6c2f1c236a78f75c43,40.86424578,-73.919072,54,142,100,1,10034
1080,"""U"" Like",4bd5f4d229eb9c74c64594e1,40.8675317158944,-73.92156645636662,143,477,419,6,10034
1081,Chop Chop,4babfacaf964a5203bdb3ae3,40.84999477426317,-73.92957273598162,247,684,567,9,10033
1082,chen's kitchen,57ef2c57498e8000d8f06479,40.865047,-73.927103,10,21,16,0,10040
1083,Great Wall Chinese Restaurant,4aaed36bf964a520736320e3,40.85085901713292,-73.93834216873442,137,423,411,9,10033
1084,Hang Lee,4b5b3c48f964a52032ed28e3,40.86738898904599,-73.92329796650934,42,163,147,4,10034
1085,Ming Moon Buffet,4bcbae5d68f976b01da46183,40.869806946439496,-73.91539830041016,19,33,33,1,10034
1086,Yang Garden,4b292f38f964a520939a24e3,40.85530896752232,-73.93783226069496,70,302,291,2,10033
1087,No. 1 Chinese Restaurant,4b3fe94af964a520e2b125e3,40.85123671099152,-73.93960586750859,138,422,412,5,10033
1088,New Star,4e57f4d845dd1de4d98ea493,40.851682631863454,-73.93037639157042,9,68,68,0,10033
1089,China Wok,4c3b4e78e927b713345e5eb2,40.855397106286624,-73.93774158324958,4,6,6,0,10033
1090,maya restaurant,4f8d80f6e4b0194668a7ee3d,40.8568833,-73.9193012,1,1,1,0,10453
1091,Chan's Kitchen,4b26f208f964a520588324e3,40.85564698496216,-73.93291376900407,43,212,194,2,10040
1092,Amy's Restaurant,4ba2b1faf964a5200d1138e3,40.86694268993064,-73.92084657831091,79,167,164,9,10034
1093,China Sea,4bd4c61b5631c9b6ae1fa330,40.865252,-73.926919,37,100,99,2,10040
1094,Silver Palace,4ba411c8f964a5202d7e38e3,40.84981135311256,-73.93353375663406,17,70,69,2,10033
1095,One Family,4c27d3e397d00f47b4fd3eea,40.863065425,-73.927404075,25,58,56,1,10040
1096,Golden City Chinese Restaurant,4e4cd2b3bd413c4cc66c71fe,40.85197042533453,-73.92868287459251,23,75,73,2,10033
1097,Super Green Chinese Restaurant,4f3237c419836c91c7c1bfd0,40.863198,-73.927454,2,4,4,0,10040
1098,Fei Ming Chinese Restaurant,4f447a7719836ed00194659f,40.86038,-73.92768,3,3,3,0,10040
1099,No 1 china,4c7c4e13a141b1f774e86a79,40.849777,-73.916004,8,15,15,0,10453
1100,HappyWorld,4f0a586de4b0e8907c8db257,40.85568223880528,-73.93418244527307,1,15,15,1,
1101,Amy's Chinese,4c3be5277d00d13a56493850,40.86725293963898,-73.9204389674392,34,39,38,1,10034
1102,King Garden,4cd4b4b12944b1f707d658ec,40.8518857228541,-73.93484637393576,40,296,279,1,10033
1103,Chinese Gourmet,50b43708e4b019904a1d757e,40.85294007054954,-73.9202552552176,11,29,25,0,10453
1104,China King,4e4cd287bd413c4cc66c7098,40.8653328846298,-73.92338982120373,1,3,2,0,10034
1105,Golden Dragon,4bec7985b68520a17f2c1287,40.86144175649594,-73.92522116510834,35,91,74,3,10040
1106,Empire Kitchen,4bd620e4637ba5935eb8f770,40.866103876234845,-73.92032988832855,8,15,15,0,10034
1107,China City Restaurant,4f322aa419836c91c7bcb8bb,40.861726,-73.911677,5,7,7,0,10468
1108,New Peking,4e4cd273bd413c4cc66c6fc8,40.861066,-73.926199,1,1,1,0,10040
1109,No. 1 Restaurant,4bcc4cf4b6c49c7424709391,40.8575259112219,-73.93217977743787,130,480,402,7,10040
1110,Hang Lung,4c7eedaed860b60c77895f9d,40.85532649239897,-73.92934178518917,34,154,139,1,10040
1111,Lotus Express,4b9aeeedf964a52086e435e3,40.86753233154188,-73.9243627793908,49,155,149,4,10034
1112,New Star Chinese Food,4e4d8676d4c019a18a3ca538,40.857445070590735,-73.9273233411204,9,18,15,0,
1113,Golden City Kitchen,4f322d3219836c91c7bdb1af,40.851374,-73.928666,4,4,4,0,10033
1114,Broadway China,4e4cd247bd413c4cc66c6e79,40.86752363548144,-73.92436577464964,2,23,23,0,10034
1115,Eastern Chinese Restaurant,4cd61596dfb4a1cd84565d5c,40.86471608475738,-73.92790787036898,18,77,77,1,10040
1116,Panda House,4c01bc9b716bc9b6e46bbc55,40.8604247218898,-73.92805485707328,240,893,518,6,10040
1117,Empire Chinese Restaurant,4c5a1c706407d13ac80bb428,40.855958906588945,-73.92887841181947,92,242,142,1,10040
1118,chen's kitchen,57ef2c57498e8000d8f06479,40.865047,-73.927103,10,21,16,0,10040
1119,Yang Garden,4b292f38f964a520939a24e3,40.85530896752232,-73.93783226069496,70,302,291,2,10033
1120,China Wok,4c3b4e78e927b713345e5eb2,40.855397106286624,-73.93774158324958,4,6,6,0,10033
1121,Chan's Kitchen,4b26f208f964a520588324e3,40.85564698496216,-73.93291376900407,43,212,194,2,10040
1122,China Sea,4bd4c61b5631c9b6ae1fa330,40.865252,-73.926919,37,100,99,2,10040
1123,One Family,4c27d3e397d00f47b4fd3eea,40.863065425,-73.927404075,25,58,56,1,10040
1124,Golden City Chinese Restaurant,4e4cd2b3bd413c4cc66c71fe,40.85197042533453,-73.92868287459251,23,75,73,2,10033
1125,Super Green Chinese Restaurant,4f3237c419836c91c7c1bfd0,40.863198,-73.927454,2,4,4,0,10040
1126,Fei Ming Chinese Restaurant,4f447a7719836ed00194659f,40.86038,-73.92768,3,3,3,0,10040
1127,HappyWorld,4f0a586de4b0e8907c8db257,40.85568223880528,-73.93418244527307,1,15,15,1,
1128,King Garden,4cd4b4b12944b1f707d658ec,40.8518857228541,-73.93484637393576,40,296,279,1,10033
1129,Golden Dragon,4bec7985b68520a17f2c1287,40.86144175649594,-73.92522116510834,35,91,74,3,10040
1130,New Peking,4e4cd273bd413c4cc66c6fc8,40.861066,-73.926199,1,1,1,0,10040
1131,No. 1 Restaurant,4bcc4cf4b6c49c7424709391,40.8575259112219,-73.93217977743787,130,480,402,7,10040
1132,Hang Lung,4c7eedaed860b60c77895f9d,40.85532649239897,-73.92934178518917,34,154,139,1,10040
1133,New Star Chinese Food,4e4d8676d4c019a18a3ca538,40.857445070590735,-73.9273233411204,9,18,15,0,
1134,Eastern Chinese Restaurant,4cd61596dfb4a1cd84565d5c,40.86471608475738,-73.92790787036898,18,77,77,1,10040
